Group,Country,Shipper Name,Shipper Address,Location Index,Name Confidence,Address Confidence,Overall Similarity,False Positive
0.0,IT,& COSTA SRL, VIA DELLE PASTORELLE 6 ,0,100.0,94.73684210526316,97.71167048054922,No
0.0,IT,& COSTA SRL, VIA DELLE PASTORELLE 10 ,0,100.0,94.73684210526316,97.71167048054922,No
1.0,DK,&TRADETION,KRONPRINSESSEGADE 4 COPENHAGEN K 1306 DK ,1,90.9090909090909,83.07692307692307,87.50380054727881,No
1.0,DE,&TRADETION A/S,KRONPRINSESSEGADE 4 INDRE BY ,1,95.65217391304348,67.85714285714286,83.56737780178236,No
,DK,&TRADETION A/S,OESTERBROGADE 70 ,-1,,,,
,DK,&TRADETION A/S,SNORRESGADE 22 ,-1,,,,
1.0,DE,&TRADETION A/S,KRONPRINSESSEGADE 4 ,1,95.65217391304348,69.38775510204081,84.2328613865206,No
1.0,IT,&TRADETIONS A/S,KRONPRINSESSEGADE 4 1306 KOBENHAVN DK ,1,95.65217391304348,69.38775510204081,84.2328613865206,No
2.0,AE,0000 HQ HQ ASG KUWAIT,OEF AWCF SSF GCSS ARMY CAMP ARIFJAN KUWAIT CITY KW,2,100.0,82.22222222222221,92.27053140096619,No
2.0,AE,0000 HQ HQ ASG KUWAIT,OEF AWCF SSF GCSS ARMY KUWAIT CITY KW 1 ARIFJAN KUWAIT W58GQR ,2,100.0,82.22222222222221,92.27053140096619,No
,AE,0044 AD BN,01 HHB ADA BN FWD OPERATION SPARTAN SHIELD AL DHAFRA AIRBASE AL DHAFRA AIRBASE AE 09853 ,-1,,,,
,RO,0156 SC BN HHC EXPEDITIONA,OPERATION INHERENT RESOLVE CAMP BUEHRING KUWAIT CITY KW 09330 ,-1,,,,
,CN,07 LIPINWANYING,CHANGXINGLU ,-1,,,,
,CN,07 LIPINWANYING,HUANGBUZHENZHENHAIBIN5LU ,-1,,,,
3.0,CA,0904329 BC LTD,30 ROUMIEU ROAD P O BOX 307 BURNS LAKE B C VOJ 1EO CANADA TEL/FAX:250-6927640 ,3,100.0,87.35632183908046,94.50274862568716,No
3.0,CA,0904329 BC LTD,PO BOX 307 30 ROUMIEU DRIVE BURNS LAKE BRITISH COLUMBIA CANADA V0J1E0 PHONE1-250-692-7640 ,-1,,,,
3.0,CA,0904329 BC LTD,30 ROUMIEU ROAD P O BOX 307 BURNS LAKE B C VOJ 1EO CANADA TEL/FAX250-6927640 ,3,100.0,87.35632183908046,94.50274862568716,No
,VN,1 AROMA BAY CANDLES CO LTD,CENTURY DISTRIBUTION SYSTEMS INC ON BEHALF OF 1 AROMA BAY CANDLES CO LTD TIEU TRA AREA HUNG DAO WARD,-1,,,,
,IN,1 ARTIFACT DECOR INDAI,305 SHEETLA ROAD NEW AGRA,-1,,,,
4.0,FR,1 BLOW,25 CHEMIN DE GEROCOURT BOISSY L AILLERIE 95650 FR ,4,100.0,98.59154929577466,99.38763012859768,No
4.0,FR,1 BLOW,25 CHEMIN DE GEROCOURT BOISSY L?AILLERIE 95650 FR ,4,100.0,98.59154929577466,99.38763012859768,No
,VN,1 J D VINAKO CO LT,CENTURY DISTRIBUTION SYSTEM INC ON BEHALF OF 1 J D VINAKO CO LTD,-1,,,,
,VN,1 LANGHAM GARMENT CO LT,CENTURY DISTRIBUTION SYSTEMS INC ON BEHALF OF 1 LANGHAM GARMENT CO LTD,5,94.11764705882352,83.33333333333334,89.42881500426259,No
,VN,1 LEE SUY VINA,CENTURY DISTRIBUTION SYSTEM INC ON BEHALF OF 1 LEE SUY VINA,-1,,,,
5.0,na,1 OAK INTERNATIONAL K, NO 34/60 GANPATI VIHAR TANAWADA PHANTA ,6,100.0,66.66666666666667,85.50724637681161,No
5.0,IN,1 OAK INTERNATIONAL K, NO 34/60 GANPATI VIHAR JODHPUR RJ 342013 IN ,6,100.0,66.66666666666667,85.50724637681161,No
,KH,1 RONG WIN GARMENT CO LTD,MAERSK LOGISTIC & SERVICE CAMBODIA CO LTD O/B 1 RONG WIN GARMENT CO LTD BUILDING J VATTANAC INDUSTRIAL PARK,-1,,,,
,CN,1 SUQIAN CAP SOURCING HEADWEAR CO LTD,MATSON LOGISTICS SHANGHAI CO LTD ON BEHALF OF 1 SUQIAN CAP SOURCING HEADWEAR CO LTD NO 3 HUANGDUN INDU STRY ROAD HUANGDUN TOWN 99999,-1,,,,
,CN,1 TOP INDUSTRIAL LTD,SHA CHONG INDUSTRIAL ZONE DA ZE TOWN XINHUI ,-1,,,,
,CN,1 TOP WING INTERNATIONAL INDUSTRIAL LIMITED,MATSON LOGISTICS SHANGHAI CO LTD ON BEHALF OF 1 TOP WING INTERNATIONAL INDUSTRY LIMITED EAST WING 4 FL OOR SVT BUILDING 23 HUA 99999,-1,,,,
6.0,VN,1/ FASHION GARMENTS CO LTD,CENTURY DISTRIBUTION SYSTEMS INC ON BEHALF OF 1/ FASHION GARMENTS CO LTD TAM THANG INDUSTRIAL ZONE TAM THANG TAM KY CITY QUANG NAM#,7,100.0,94.79166666666666,97.73550724637681,No
6.0,VN,1/ FASHION GARMENTS CO LTD,CENTURY DISTRIBUTION SYSTEMS INC ON BEHALF OF 1/ FASHION GARMENTS CO LTD TAM THANG INDUSTRIAL ZONE TAM THANG TAM KY CITY #,7,100.0,94.79166666666666,97.73550724637681,No
,VN,1/ JULIUS INDUSTRIES LIMITED,CENTURY DISTRIBUTION SYSTEM INC ON BEHALF OF 1/ JULIUS INDUSTRIES LIMITED ADDRESS LOT 23 NOI BAI LNDUSTRIAL ZONE QUANG TIEN COMMUNE X,-1,,,,
,VN,1/ LANGHAM GARMENT LOT,CENTURY DISTRIBUTION SYSTEMS INC ON BEHALF OF 1/ LANGHAM GARMENT LOT 21 6TH STREET TAY NINH 73000 VN,5,94.11764705882352,83.33333333333334,89.42881500426259,No
,VN,1/ NAM THUAN CO LTD,CENTURY DISTRIBUTION SYSTEM INC ON BEHALF OF 1/ NAM THUAN COMPANY LIMITED RUC LIEN HAMLET THUY SON COMMUNE THUY NGUYEN DISTRICT X,-1,,,,
,VN,1/ TAEYANG VINA CO LTD, 2/ AROMABAY CANDLES CO LTD 206 ROAD PHO NOI A INDUSTRIAL ZONE HUNG YEN 160000 VN ,-1,,,,
,ES,100 MISTERIOS LDA,RUA DO ROSARIO 271 ,8,80.0,81.08108108108108,80.47003525264397,No
,JP,100 PERCENT INC,69-1 GANYUDO-NANJOJI ,-1,,,,
,CN,1000 MILES LIMITED, NO 1 WEN HUA ROAD YIWU ZHEJIANG 32200 CN ,-1,,,,
7.0,HK,1000 TOYS INC,FLAT B-E 33/F PLAZA 88 NO 88 YEUNG UK ROAD TSUEN WAN NEW TERRITORIES HK ,9,100.0,100.0,100.00000000000001,No
7.0,CN,1000 TOYS INC,FLAT B-E 33/F PLAZA 88 NO 88 YEUNG UK ROAD TSUEN WAN NEW TERRITORIES HK ,9,100.0,100.0,100.00000000000001,No
,ES,100MISTERIOS LDA,RUA DO ROSARIO 271 GARAGEM ,8,80.0,81.08108108108108,80.47003525264397,No
8.0,DE,101 COPENHAGEN APS,OESTERGADE 17 COPENHAGEN 1100 DK ,10,100.0,59.57446808510638,82.42368177613322,No
8.0,DE,101 COPENHAGEN APS,OESTERGADE 17 INDRE BY ,10,100.0,59.57446808510638,82.42368177613322,No
,ES,1010 PREMIUM DRINKS SLU B66220708,CL VIA SERGIA 96 08302 MATARO BARCELONA BARCELONA ES ,-1,,,,
9.0,HK,1010 PRINTING INTERNATIONAL LIMITE,LEVEL 11 EAST WING NEO 123 HOI BU KWUN TONG KOWLOON HK ,11,89.28571428571429,91.42857142857143,90.21739130434783,No
9.0,CN,1010 PRINTING INTERNATIONAL LIMITE,LEVEL 11 EAST WING NEO 123 HOI BU KWUN TONG KOWLOON HK ,11,89.28571428571429,91.42857142857143,90.21739130434783,No
9.0,HK,1010 PRINTING INTERNATIONAL LIMITED, LEVEL 11 EAST WING NEO 123 HOI BUN ROAD KWUN TONG KOWLOON ,11,87.71929824561404,100.0,93.05873379099924,No
9.0,HK,1010 PRINTING INTERNATIONAL LTD,LEVEL 11 EAST WING NEO 123 HOI BUN ROAD KWUN TONG KOWLOON ,11,64.86486486486487,92.6829268292683,76.95967441460549,No
9.0,HK,1010 PRINTING INTERNATIONAL LTD,LEVEL 11 EAST WING NEO 123 HOI BUN ROAD KWUN TONG KWAI CHUNG N T HO ,11,64.86486486486487,73.07692307692308,68.4353249570641,No
9.0,CN,1010 PRINTING INTERNATIONAL LTD,LEVEL 11 EAST WING NEO 123 HOI BUN ROAD KWUN TONG KOWLOON ,11,64.86486486486487,92.6829268292683,76.95967441460549,No
9.0,HK,1010 PRINTING INTERNATIONAL LTD,LEVEL 11 EAST WING NEO 123 HOI BUN ROAD KWUN TONG ,11,64.86486486486487,92.6829268292683,76.95967441460549,No
9.0,HK,1010 PRINTING INTERNATIONAL LTD,LEVEL 11 EASTWING NEO 123 HOI BUN ROAD KWUN TONG HONG KONG HONG KONGHK ,11,64.86486486486487,62.745098039215684,63.94322711458262,No
9.0,HK,1010 PRINTING INTERNATIONAL LTD,LEVEL 11 EAST WING NEO 123 HOI BUN ROAD KWUN TONG KOWLOON HK ZIP CODE 99 ,11,64.86486486486487,76.0,69.70622796709753,No
10.0,HK,1010 PRINTING INTERNATIONAL LTD,26/F 625 KINGS ROAD NORTH POINT ,12,100.0,68.57142857142857,86.33540372670808,No
9.0,HK,1010 PRINTING INTERNATIONAL LTD,LEVEL 11 EAST WING NEO 123 HOI BUN ROADKWUN TONG HONG KONG HONG KONG HK ,11,64.86486486486487,74.50980392156863,69.05831662864912,No
9.0,HK,1010 PRINTING INTERNATIONAL LTD,LEVEL 11 EAST WING NEO 123 HOI BU N ROAD KWUN TONG KOWLOON ,11,64.86486486486487,90.0,75.79318448883667,No
9.0,CN,1010 PRINTING INTERNATIONAL LTD,LEVEL 11 EAST WING NEO 123 HOI BUN ROAD KWUN TONG ,11,64.86486486486487,92.6829268292683,76.95967441460549,No
9.0,HK,1010 PRINTING INTERNATIONAL LTD,LEVEL 11 EAST WING NEO 123 HOI BUN KWUN TONG ,11,64.86486486486487,87.17948717948718,74.56687456687457,No
9.0,CN,1010 PRINTING INTERNATIONAL LTD,LEVEL 11 EAST WING ROAD 123 HOI BUN ROAD KWUN TONG KOWLOON ,11,64.86486486486487,88.37209302325581,75.08539884677398,No
9.0,HK,1010 PRINTING INTERNATIONAL LTD,LEVEL 11 EAST WING NEO 123 HOI BUN ROAD ,11,64.86486486486487,92.6829268292683,76.95967441460549,No
9.0,CN,1010 PRINTING INTERNATIONAL LTD,LEVEL 11 EAST WING NEO 123 HOI BUN ROAD KWUN TONG KOWLOON HK ,11,64.86486486486487,92.6829268292683,76.95967441460549,No
10.0,SG,1010 PRINTING INTERNATIONAL LTD,26/F 625 KING S ROAD ,12,100.0,68.57142857142857,86.33540372670808,No
9.0,HK,1010 PRINTING INTERNATIONAL LTD,LEVEL 11 EAST WING NEO 123 HOI BUN ROAD KWUN TONG HONG KONG HONG KONG HONG KONG HK ,11,64.86486486486487,92.6829268292683,76.95967441460549,No
9.0,CN,1010 PRINTING INTERNATIONAL LTD,LEVEL 11 EAST WING ROAD 123 HOI BUN ROAD KWUN TONGKOWLOON ,11,64.86486486486487,65.51724137931035,65.14850682766725,No
9.0,CN,1010 PRINTING INTERNATIONAL LTD,LEVEL 11 EAST WING NEO 123 HOI BUN ROAD ,11,64.86486486486487,92.6829268292683,76.95967441460549,No
9.0,HK,1010 PRINTING INTERNATIONAL LTD,LEVEL 11 EAST WING NEO123 HOI BUN ROAD KWUN TONG HK ,11,64.86486486486487,84.21052631578947,73.2760220174408,No
9.0,HK,1010 PRINTING INTERNATIONAL LTD,LEVEL 11 EAST WING NEO 123 HOI BUN ROAD KOWLOON HK ,11,64.86486486486487,92.6829268292683,76.95967441460549,No
9.0,CN,1010 PRINTING INTL LTD,123 HOI BUN ROAD LEVEL 11 EAST WINGNEO HONG KONG CHINA 51800 ,11,100.0,100.0,100.00000000000001,No
9.0,CN,1010 PRINTING INTL LTD,HOI BUN ROAD 123 LEVEL 11 EAST WING NEO ,11,100.0,92.6829268292683,96.81866383881231,No
9.0,HK,1010 PRINTING INTL LTD,LEVEL 11 EAST WING NEO 123 HOI BUN RD ,11,100.0,92.6829268292683,96.81866383881231,No
9.0,CN,1010 PRINTING INTL LTD,BUN RD KWUN TONG ,-1,,,,
9.0,CN,1010 PRINTING INTL LTD,HOI BUN ROAD 123 LEVEL 11 EAST WINGNEO HONG KONG CHINA 51800 ,11,100.0,92.6829268292683,96.81866383881231,No
,GB,111 SKIN LTD,5 BYWELL PLACE W1 ,-1,,,,
,SG,12 CHANGI SOUTH,PT BINTAN BERSATU APPAREL ON BEHALF 12 CHANGI SOUTH LANE,-1,,,,
,CN,1233 INTERNATIONAL TRADE FUJIAN CO LTD, NO B6058 EAST EXHIBITION HALL FSICEC NO 198 WEST NANJIANGBIN AVENUE INFREE TRADE ZOOM CHENGMEN+ ,-1,,,,
11.0,JM,12602415 CANADA INC,133 BOAKE TRAIL RICHMOND HILL ONTARIO CANADA L4B 3V8 ,13,100.0,75.86206896551724,89.50524737631184,No
11.0,JM,12602415 CANADA INC,133 BOAKE TRAIL RICHMOND HILL ON L4B 3V8 ATTN: KEVIN ,13,100.0,75.86206896551724,89.50524737631184,No
,TH,129 MOO1 T MAKHAMKOO RAYONG,ALLPORT CARGO SERVICES THAILAND CO LTD ON BEHALF OF 129 MOO1 T MAKHAMKOO RAYONG 2118 0 TH,-1,,,,
,ID,12950,PT APL LOGISTICS JL PROF DOKTER SATRIO KAV E4 NO 6 RT 5/RW 2 KUNINGAN DKI JAKARTA 10160 ON BEHALF OF SHIPPER 12950,-1,,,,
,CA,1316359 ALBERTA LTD,CLOTHING FOR 109-18 HIGHLAND PARK WAY NE AIRDRIE AB T4A 0R1 CANADA ,-1,,,,
,AR,14 DE JULIO SA ACHA,983 MAR DEL PLATA - ARGENTINA CUIT 30-67957864-9 ,-1,,,,
,CA,14687469 CANADA INC/DSOUZA FOR,229 YONGE ST TORONTO ON M5B 1N9TEL 365-306-1425EMAIL DSOUZAEXPORTERGMAIL COM ,-1,,,,
,CA,14792823 CANADA INC,O/A CHEEMA FREIGHTER ADRES SUITE3 22 FREDERICK ST KITCHENER ON N2H 6M6 TEL 226-336-3749 ,-1,,,,
,GB,14TH SIGNAL REGIMENT / QM T DEPT,CAWDOR BARRACKS BRAWDY ,-1,,,,
,FR,18 SAS,13 CHEMIN DES CHAUDRONNIERS CHAUDRONNIERS ,-1,,,,
,LA,1818 S A,C AV 22 DE JULIO NRO 230 ATE - LIMA - PERU RUC: 20505108672 ,-1,,,,
,IT,1825 SRL, VIA ALDO MORO N 3/4 13900 - BIELLA BI ITALY ,-1,,,,
,FR,1864 SARL,RUE DU GENERAL MUFFAT DE ST AMOUR MEGEVE 74120 FR ,-1,,,,
,KR,19 SINHANG,10 RO JINHAE GU CHANGWON SI GYEONGSANGNAM DO REPUBLIC OF KOREA ,-1,,,,
12.0,CN,1BYONE HOLDING LIMITED, 19H MAXGRAND PLAZA NO 3 TAI YAU STREET SAN PO KONG KL HONG KONG CHINA ,14,100.0,100.0,100.00000000000001,No
12.0,CN,1BYONE HOLDING LIMITED, 19H MAXGRAND PLAZA NO 3 TAI YAU STREET SAN PO KONG KL CHINA ,14,100.0,100.0,100.00000000000001,No
,GB,1ENV SOLUTIONS,AVIATION WAY SOUTHEND AIRPORT ,-1,,,,
,ES,1NYECTA MOULDED PARTS S L,CALLE HIGUERAS 14 NAVE 7 VALLADOLID SPAIN ,-1,,,,
,GB,1ST DIBS COM,HILLWAY GARAGE HILLWAY ,-1,,,,
13.0,CN,1ST SUCCESS LIMITED, ROOM 1607 16TH FLOOR MUNICIPAL BUILDING LOCKHART ROAD WANCHAI HONGKONG 999077 ,15,100.0,100.0,100.00000000000001,No
13.0,CN,1ST SUCCESS LIMITED, ROOM 1607 16TH FLOOR MUNICIPAL BU ILDING LOCKHART ROAD WANCHAI HON G KONG 999077 ,15,100.0,86.23853211009174,94.01675309134424,No
13.0,CN,1ST SUCCESS LIMITED, ROOM 1607 16TH FLOOR MUNICIPAL BU ILDING LOCKHART ROAD WANCHAI HON G KONG CHINA ,15,100.0,86.23853211009174,94.01675309134424,No
13.0,CN,1ST SUCCESS LIMITED, ROOM 1607 16TH FLOOR MUNICIPAL BUILDING LOCKHART ROAD WANCHAI ,15,100.0,86.23853211009174,94.01675309134424,No
,CN,2 AM INNOVATIONS LTD,ROOM1115 11/F TOWER A REGENT CENTRE63 WO YI HOP ROAD KWAI CHUNG ,-1,,,,
,IT,2 GAMMA AUTOMOTIVE SRL, VIA TRENTO 23 ,-1,,,,
14.0,SV,2 GAMMA SRL, CORSO INGHILTERRA 15 MONDOVI 12084 IT ,16,100.0,80.0,91.30434782608697,No
14.0,IT,2 GAMMA SRL, CORSO INGHILTERRA 15 MONDOVI ITALY ,16,100.0,75.0,89.1304347826087,No
14.0,IT,2 GAMMA SRL, CORSO INGHILTERRA 15 ,16,100.0,75.0,89.1304347826087,No
,PR,2 GO STORAGE,PO BOX 446 CAGUAS PR 00726 ,-1,,,,
,IT,2 GR S R L, VIA VERZELLONI 14 CORREGGIO ITALY ,-1,,,,
,GB,2 HEADS DESIGN LTD,REGATTA HOUSE 67-71 HIGH STREET MARLOW BUCKINGHAMSHIRE SL7 1AB VAT GB270453025000 CTC STEVE PARRA TEL 310 4639934 EMAIL ,-1,,,,
,CN,2/F EDGE,DHL GLOBAL FORWARDING HK LTD O/B 2/F EDGE 30-34 KWAI WING ROAD,-1,,,,
15.0,IN,20 MICRONS LIMITED, PLOT NO-01/02 AT DHRUB REVENUE SU EY NO-83/1 VILLAGE-DHRUB NEAR ADAN PORT TAL MUNDRA KUTCHH GUJAR ,17,100.0,92.20779220779221,96.61208356860531,No
15.0,IN,20 MICRONS LIMITED, PLOT NO-01/02 AT DHRUB REVENUE SU NO-83/1 VILLAGE-DHRUB NEAR ADANI MUNDRA KUTCHH GUJARAT INDIA - ,17,100.0,84.9673202614379,93.46405228758171,No
15.0,IN,20 MICRONS LIMITED, PLOT NO-01/02 AT DHRUB REVENUE SU 83/1 VILLAGE-DHRUB NEAR ADANI POR MUNDRA KUTCHH GUJARAT INDIA - ,17,100.0,81.81818181818181,92.09486166007906,No
15.0,IN,20 MICRONS LIMITED, PLOT NO-01/02 AT DHRUB REVENUE SURVEY NO-83/1 VILLAGE-DHRUB NEAR ADANI PORT TAL MUNDRA KUTCHH ,17,100.0,81.81818181818181,92.09486166007906,No
,CA,2000007 ONTARIO INC,3605 WESTON ROAD TORONTO ON CANADA ,-1,,,,
,CN,21 KEG CO LTD, B502 INNOVATION BUILDING INFORMATI ON INDUSTRY GARDEN CHAOYANG ROAD ,-1,,,,
,TR,212 BOSPHORUS GIDA TEKS REKL ORG,FATIH MH PROF DR NECMETTIN ERBAKAN ,-1,,,,
,BR,2124503 ALBERTA LTD,3200 10180-101 STREET EDMONTON ALBERTA T53W8 ,-1,,,,
16.0,CA,2155604 ONTARIO INC, 85 MIDWEST ROAD SCARBOROUGH ON CANADA M1P3A6 SCARBOROUGH ON M1P3A6 CA ,18,100.0,65.88235294117646,85.16624040920716,No
16.0,JM,2155604 ONTARIO INC,85 MIDWEST ROAD SCARBOROUGH CANADA 16472983121 ,18,100.0,100.0,100.00000000000001,No
16.0,CA,2155604 ONTARIO INC,85 MIDWEST ROAD SCARBOROUGH CANADA ,18,100.0,100.0,100.00000000000001,No
16.0,JM,2155604 ONTARIO INC,85 MIDWEST ROAD SCARBOROUGH CANADA ,18,100.0,100.0,100.00000000000001,No
,CA,219 9030 LESLIE,K & K INT L HOLDINGS INC ON BEHALF #219 - 9030 LESLIE STREET RICHMOND RICHMOND ON L4B 1G2 CANADA,-1,,,,
,IN,21G DESIGN WORKS PVT LTD, NO 32/33/5B AND 34/33/5B 2ND FLOOR ANNAPOORNA INDUSTRIAL COMPOUND ,-1,,,,
17.0,CN,21ST CENTURY BRANDS LIMITED, UNIT 07 10 28 F TRENDY CENTRE 682 CASTLE PEAK ROAD CHEUNG SHAWAN ,19,100.0,92.92929292929293,96.9257795344752,No
17.0,CN,21ST CENTURY BRANDS LIMITED, UNIT 07 10 28 F TRENDY CENTRE 682 CASTLE PEAK ROAD ,19,100.0,85.0574712643678,93.50324837581209,No
17.0,CN,21ST CENTURY BRANDS LIMITED, UNIT 07 10 28 F TRENDY CENTRE 682 CASTLE PEAK ROAD CHEUNG SHA WAN ,19,100.0,98.98989898989899,99.56082564778218,No
17.0,CN,21ST CENTURY BRANDS LIMITED, UNIT 07-10 28 F TRENDY CENTRE 682 CASTLE PEAK ROAD CHEUNG SHA WAN KOWLOON HONG KONG ,19,100.0,98.98989898989899,99.56082564778218,No
17.0,CN,21ST CENTURY BRANDS LIMITED, UNIT 07-10 28/F TRENDY CENTRE 682 CASTLE PEAK ROAD CHEUNG SHA WAN HONGKONG CHINA ,19,100.0,98.98989898989899,99.56082564778218,No
,CL,21ST CENTURY LABELS INTERNATIONAL,ZONA FRANCA FRANCISCO M ESPAILLAT NAVE 1 ETAPA II C/ LICEY ,-1,,,,
,ES,21ST CENTURY MARINE VENTURES LTD,1209 N ORANGE STREET WILMINGTON DE US 19801 ,-1,,,,
,CN,22 DONGFU,DHL GLOBAL FORWARDING CHINA CO LTD SHENZHEN BRANCH ON BEHALF 22 DONGFU ROAD FUSHA ZHONGSHAN Z HONGSHAN 528434 CN,-1,,,,
,CN,22A HANSON PLACE EASTERN CREEK NSW,AUSTRALIA ,-1,,,,
,CA,2355078 ONTARIO INC,DOWNTOWN COPIERS 1744 MEYERSIDE DRIVE UNIT 103 CALE DON ON L7C 0S6 CA ,-1,,,,
18.0,JM,24 7 SHIP SPARES,2030 E GLADWICK ST UNIT A ,20,100.0,87.5,94.56521739130436,No
18.0,PA,24 7 SHIP SPARES,2030 E GLADWICK ST UNIT A ,20,100.0,87.5,94.56521739130436,No
18.0,MX,24 7 SHIP SPARES INC,2030 E GLADWICK ST ,20,100.0,100.0,100.00000000000001,No
18.0,GB,24 7 SHIP SPARES INC,2030 E GLADWICK ST ,20,100.0,100.0,100.00000000000001,No
18.0,NL,24 7 SHIP SPARES INC,2030 E GLADWICK ST ,20,100.0,100.0,100.00000000000001,No
18.0,CA,24 7 SHIP SPARES INC,2030 E GLADWICK ST UNIT A ,20,100.0,87.5,94.56521739130436,No
18.0,KR,24 7 SHIP SPARES INC,2030 E GLADWICK ST ,20,100.0,100.0,100.00000000000001,No
18.0,NF,24 7 SHIP SPARES INC,2030 E GLADWICK ST ,20,100.0,100.0,100.00000000000001,No
18.0,IN,24 7 SHIP SPARES INC,2030 E GLADWICK ST ,20,100.0,100.0,100.00000000000001,No
18.0,CN,24 7 SHIP SPARES INC,2030 E GLADWICK ST ,20,100.0,100.0,100.00000000000001,No
18.0,CA,24 7 SHIP SPARES INC,2030 E GLADWICK ST ,20,100.0,100.0,100.00000000000001,No
18.0,ES,24 7 SHIP SPARES INC,2030 E GLADWICK ST ,20,100.0,100.0,100.00000000000001,No
,CN,2440 LVYOU, ROAD ZHUHAI 519006 CHINA ,-1,,,,
,VN,247 IMPORT & EXPORT CO LTD, 24 PHAN BOI CHAU STR THACH THANG WARD HAI CHAU DISTRICT DANANG CITY VIETNAM DANANG VN ,-1,,,,
19.0,CN,24HOURS GUANGZHOU AFREIGHTSUPPLY,CHAINMANAGEMENTCO LTD ROOM110 BUILDING9NO 1ERHENGROAD ,21,100.0,95.65217391304348,98.10964083175806,No
19.0,CN,24HOURS GUANGZHOU AFREIGHTSUPPLY,CHAINMANAGEMENTCO LTD ROOM110 BUILDING9 NO 1ERHENGROAD ,21,100.0,95.65217391304348,98.10964083175806,No
,CA,2675261 ONTARIO INC, 150 FAIRVIEW MALL DR SUITE 907 NOR TH YORK ON M2J 2Z1 CA ,-1,,,,
,VN,28 1 JOINT STOCK COMPANY, 03 NGUYEN OANH ST GO VAP DISTRICT ,-1,,,,
,VN,28 DA NANG JOINT STOCK COMPANY, 67 DUY TAN STREET- HOA THUAN TAY WARD - HAI CHAU DISTRICT- DA NANG CITY - VIETNAM ,-1,,,,
20.0,VN,28 HUNG PHU JSC,168 QUANG TRUNG STR WARD 10 GO VAP HO CHI MINH CITY VIETNAM,22,100.0,89.8876404494382,95.60332193453836,No
20.0,VN,28 HUNG PHU JSC,168 QUANG TRUNG STR WARD 10 GO VAP DIST HO CHI MINH VN,22,100.0,89.8876404494382,95.60332193453836,No
20.0,VN,28 HUNGPHU JS COMPANY, 168 QUANG TRUNG - GOVAP - HO CHI MINH CITY - VIETNAM EMAIL: QUYENLE@28HUNGPHU COM ,-1,,,,
21.0,NO,28 QUANG NGAI JOINT STOCK COMPANY, 121 LE TRUNG DINH ST -TRAN HUNG DAOWARD-QUANG NGAI CITY QUANG NGAI PROQUANG NGAI VN QUANG NGAIVN ,23,85.71428571428572,92.3076923076923,88.58098423315816,No
21.0,NO,28 QUANGNGAI JOINT STOCK COMPANY, 121 LE TRUNG DINH ST -TRAN HUNG DAOWARD-QUANG NGAICITY QUANG NGAI PRO QUANG NGAI VN QUANG NGAI VN ,23,85.71428571428572,92.3076923076923,88.58098423315816,No
,AF,2A MUHENDISLIK SANAYI VE TICARET A 2A IS MERKEZI KAGITHANE CD, NO 2 34400 KAGITHANE-ISTANBUL ISTANBUL ,-1,,,,
,IT,2A SPA,VIA SAN QUINTINO 28 ,24,75.0,64.28571428571428,70.3416149068323,No
,BE,2B BEST BUSINESS AB,HYVELGATAN 2 ,-1,,,,
,IT,2B MINERAL SRL, VIALE EUROPA 81 CAMPOGALLIANO 41011 IT ,-1,,,,
,DE,2D METAL,B P 70 ,-1,,,,
,BS,2D TO 3D S R L, S VIA SANTUARIO 27/B 12033 MORETTA ,-1,,,,
,CN,2FIBER COMMUNICATION LIMITED, ROOMS 1318 19 HOLLYWOOD PLAZA 610 MONGKOK KOWLOON HK ,-1,,,,
,DE,2G ENERGIETECHNIK GMBH,BENZSTR 3 HEEK 48619 DE ,-1,,,,
,CA,2H03 LAFARGE CANADA INC,RICHMOND PLANT 7611 NO 9 ROAD RICHMOND BC V6W 1H4 ,-1,,,,
,FR,2ISO,7 LE CLOS MONTPLAISIR 31460 CARAMAN FRANCE ,-1,,,,
,DE,2J ANTENNAS S R O,STEFANIKOVA 61 BARDEJOV 08501 SK ,-1,,,,
22.0,GB,2K POLYMER SYSTEMS LIMITED, VENTURE CRESCENT ALFRETON ,25,82.05128205128204,80.70175438596492,81.46453089244851,No
22.0,BE,2K POLYMER SYSTEMS LIMITED, VENTURE CRESCENT ALFRETON DERBYSHIRE ENGLAND DE55 7RA UNITED KINGDOM ,25,82.05128205128204,63.829787234042556,74.12889300030835,No
22.0,GB,2K POLYMER SYSTEMS LTD,VENTURE CRESCENT ALFRETON GB ,25,100.0,84.7457627118644,93.36772291820192,No
22.0,GB,2K POLYMER SYSTEMS LTD,VENTURE CRESCENT ALFRETON DB DE557RA GB ,25,100.0,84.7457627118644,93.36772291820192,No
,IT,2LOG SRL, VIA ASSAROTTI 11/3 16122 GENOVA ITALY ,-1,,,,
,DE,2LP RETAIL FURNITURE,FARVERVEJ 20 ,-1,,,,
,CN,2M GROUP,LIMITED NO 706 SHENGTAIZHONGGUO CHAOYAGN STREET ,-1,,,,
,PA,2MGR REVESTIMENTOS LTDA, R JOSIAS DA SILVA RAINHA 25 DISTRI TO IND DE SAO JOAQUIM MORRO GRAN ,-1,,,,
,IT,2P S P A,VIA LOMBARDIA 26 BULCIAGO 23892 IT ,-1,,,,
,IT,2P TRADE SRL, VIA AURELIA KM364 ,-1,,,,
,IS,2VV S R O,FABLOVKA 568 PARDUBICE STARE HRADISTE 533 52 CZ ,-1,,,,
24.0,IT,3 B S P A,1 VIA DELLE INDUSTRIE SALGAREDA TV 31040 IT ,-1,,,,
23.0,IT,3 B SPA,VIA CALNUOVA 18 31040 SALGAREDA IT ,26,100.0,65.38461538461539,84.94983277591975,No
23.0,IT,3 B SPA,VIA CALNUOVA 18 SALGAREDA 31040 ITALY ,26,100.0,61.81818181818181,83.39920948616601,No
23.0,IT,3 B SPA,VIA CALNUOVA 18 SALGAREDA 31040 ,26,100.0,60.0,82.60869565217392,No
23.0,FR,3 B SPA,VIA CALNUOVA 18 SALGAREDA 31040 ITALY ,26,100.0,61.81818181818181,83.39920948616601,No
24.0,IT,3 B SPA,VIA DELLE INDUSTRIE 1 SALGAREDA 31040 IT ,26,100.0,61.81818181818181,83.39920948616601,No
,CM,3 C G COMPTOIR CAFE & CACAO GROUP, DOUALA P/C MANDZE CLETUS FONLON DOUALA - CAMEROUN ,-1,,,,
,CN,3 C HOME LIMITED, NO 228 CHANGHUANLUBIAN MAWU VILLA CHANGPING TOWN DONGGUANG CITY ,-1,,,,
,IT,3 C LAVORAZIONE PELLE SRL, VIA IV STRADA 29 ARZIGNANO VI 36071 ITALY ,-1,,,,
,ES,3 CENTEX SRL, VIA A GRAMSCI 7 20841 CARATE BRIANZA MB ,-1,,,,
,IN,3 D PLUS INC,401 I-1 ROAD BHUPALPURA UDAIPUR UDAIPUR RJ 313001 INDIA ,-1,,,,
25.0,MY,3 DAY S FURNITURE SDN BHD, POS 735 A PARIT BAKAR DARAT 84010 MUAR JOHOR ,27,100.0,98.36065573770492,99.2872416250891,No
25.0,MY,3 DAY S FURNITURE SDN BHD, POS 735A PARIT BAKAR DARAT 84010 MUAR JOHOR ,27,100.0,98.36065573770492,99.2872416250891,No
,LK,3 S FABRICATIONS PVT LTD, VENUS MILLS ETIYAWELA DALUWELA DANKOTUWA SRI LANKA COLOMBO ,-1,,,,
26.0,TH,3 SEASONS FRUIT INDUSTRIAL CO LTD, 1069 1071 1073 RAMA 9 ROAD SU AN LUANG KRUNG THEP MAHA NAKHON BA NGKOK THAILAND ,28,100.0,71.42857142857143,87.57763975155281,No
26.0,TH,3 SEASONS FRUIT INDUSTRIAL CO LTD, 1069 1071 1073 RAMA 9 ROAD SUAN LUANG SUAN LUANG BANGKOK THAILAND 10250 ,28,100.0,71.42857142857143,87.57763975155281,No
,PK,3 WICKETS INTERNATIONAL,5-KM ADDAH DASKA ROAD SIALKOT PAKISTAN,-1,,,,
27.0,CN,3 YUAN DONGGUAN SOUND ELECTRONIC CO,NO298 WU BA WEI ROAD QISHI TOWN DONGGUAN CITY GUANGDONG PROVINCE CHINA ,29,100.0,68.88888888888889,86.47342995169083,No
27.0,CN,3 YUAN DONGGUAN SOUND ELECTRONIC O,298 WUBAWEI ROAD QISHI TOWN DONGGUAN GUANGDONG,29,100.0,68.88888888888889,86.47342995169083,No
,VN,32 JOINT STOCK COMPANY, 170 QUANG TRUNG STREET GO VAP DIST VN ,-1,,,,
28.0,PH,33 POINT 3 EXPORT INC, M L QUEZON ST CASUNTINGAN MANDAUE 6014 PH ,30,100.0,74.50980392156863,88.91730605285593,No
28.0,PH,33 POINT 3 EXPORT INC,M L QUEZON ST CASUNTINGAN ,30,100.0,74.50980392156863,88.91730605285593,No
,HK,35PLUS LIMITED, D D 107 LOT 475 FUNG KAT HEUNG YUEN LONG HONG KONG ,-1,,,,
,CN,360 AUTOTEK LIMITED, 4TH FL YONGYE BLDG ZHONGYI INDUST RIAL ZONE ZHONGCUN PANYU DISTRICT ,-1,,,,
29.0,CN,360 DEGREE CLOTHING HOLDINGS LIMI,4/F CAR PO COMMERCIAL BUILDING 18-20 LYNDHURST TERRACE CENTRAL,31,100.0,94.44444444444444,97.58454106280195,No
29.0,CN,360 DEGREE CLOTHING HOLDINGS LIMI,4/F CAR PO COMMERCIAL BUILDING 18-20 LYNDHURST TERRACE CENTRAL HONG KONG HONG KONG ISLAND HK,31,100.0,94.44444444444444,97.58454106280195,No
,CN,360 MANUFACTURING MANAGEMENT LIMITED, ROOM 1302 13/F LUCKY CENTRE NO 165-171 WAN CHAI ROAD WAN CHAI HK ,-1,,,,
,HK,360PRO SOLUTIONS LIMITED,99 HENNESSY ROAD BAYFIELD BUILDING SUITE 2301 WAN CHAI HONG KONG ,-1,,,,
,IN,38 SECTOR,SHYAM COTSYN INDIA LTD B O B 38 SECTOR 80 NOIDA U P INDIA,-1,,,,
,DE,3A COMPOSITES GMBH,ALUSINGENPLATZ 1 D-78224 SINGEN ,-1,,,,
,PG,3A COMPOSITES PNG LTD,P O BOX 1929 KOKOPO ENBP PNG PH 675 982 8416 FAX 675 982 8420 ,-1,,,,
30.0,CN,3A MEDICAL PRODUCTS CO LTD, YU AN INDUSTRIAL PARK ,32,100.0,78.26086956521739,90.54820415879017,No
30.0,CN,3A MEDICAL PRODUCTS CO LTD, YU AN INDUSTRIAL PARK 230001 LIU A HEFEI AH 230001 CHINA ,32,100.0,78.26086956521739,90.54820415879017,No
,CN,3ACE FAR EAST LIMITED, RM 18 27/F HO KING COMM CTR 2-16F AYUENST MONGKOK KOWLOONHONG KONG 999077 ,-1,,,,
,BE,3B FIBREGLASS SRL, ROUTE DE MAESTRICHT 67 BATTICE 465 1 BE ,-1,,,,
,DE,3B HUNGARIA KFT,WLASSICS GY U 13 ,-1,,,,
,DE,3B SCIENTIFIC GMBH,RUDORFFWEG 8 HAMBURG 21031 DE ,-1,,,,
,KR,3C LAB,A-301 GLOBAL BIZ CENTER 43 CHANGE OP-RO SEONGNAM-SI GYEONGGI-DO REPUBLIC OF KOREA TEL 13449 ,-1,,,,
,DE,3CON ANLAGENBAU GMBH,KLEINFELD 16 ,-1,,,,
31.0,TR,3D CAM PAZ SAN VE TIC LTD,STI RAMAZANOGLU MAH ENSAR CAD NO:6 1 KURTKOY PENDIK ISTANBUL TR ,33,100.0,93.75,97.28260869565219,No
31.0,TR,3D CAM PAZ SAN VE TIC LTD,STI RAMAZANOGLU MAH ENSAR CAD NO:6 1 KURTKOY ISTANBUL 34906 TR ,33,100.0,93.75,97.28260869565219,No
,MY,3D EDARAN SDN BHD, 41 JALAN PERAK 10150 PENANG ,-1,,,,
,BE,3D SYSTEMS GMBH,WALDECKER STRASSE 13 ,-1,,,,
,IN,3DPLUS INC,4011 ROAD BHUPALPURA ,-1,,,,
,CN,3E FASHION JEWELLERY CO LTD, UNIT 1704 HK WORSTED MILLS IND BLDG TSUI ST KWAI CHUNG ,-1,,,,
,CN,3E HK LTD,2-16 WO LIU HANG ROAD FLAT 710 BLO CK C 7 F FOTAN SHA TIN HK ,-1,,,,
,CN,3F,EAST ZONE OF DONGBANG TAIPING ROAD 999 GUANYINSHAN ,-1,,,,
32.0,CN,3F ELECTRONICS INDUSTRIAL CORP,QIFURUI ZONE ZHENXING RD LOU VILLAGE GUANGMING TOWN BAOAN DISTRICT ,34,100.0,92.45283018867924,96.71862182116489,No
32.0,CN,3F ELECTRONICS INDUSTRIAL CORP,QIFURUI ZONE ZHENXING RD LOU VILLAGE GUANGMING TOWN BAOAN ,34,100.0,92.45283018867924,96.71862182116489,No
,ES,3F FEED AND FOOD S L,AVDA LEONARDO DA VINCI 2 PORTAL GETAFE M 28906 SPAIN ,-1,,,,
33.0,DE,3F GMBH KLEBE & KASCHIERTECHNIK,DAIMLERSTRASSE 4-8 73655 PLUEDERHAUSEN GERMANY ,35,100.0,75.67567567567568,89.42420681551117,No
33.0,BW,3F GMBH KLEBE & KASCHIERTECHNIK, DAIMLERSTRAE4-8 D-73655 PLUEDERHAU PLUEDERHAUSEN 73655 DE ,35,100.0,97.43589743589743,98.88517279821629,No
33.0,BW,3F GMBH KLEBE & KASCHIERTECHNIK, DAIMLERSTRAE4-8 D-73655 PLUEDERHAU PLUEDERHAUSEN BW 73655 DE ,35,100.0,97.43589743589743,98.88517279821629,No
,KR,3G TECHNOLOGIES CO LTD, 306 28 HYORYUNG RO 55 GIL SEOCHO GU SEOUL KR ,-1,,,,
,CN,3H APOTHEKE LIMITED, ROOM 2105 TREND CENTRE 29-31 CHEU HONGKONG ,-1,,,,
,CN,3H APOTHEKE LIMITED,EXPEDITORS O/B 3H APOTHEKE LIMITED RM D01 3/F WO NG KING INDUSTRIAL BUILDING NO 2 T AI YAU STREET KL HK,-1,,,,
,TW,3H FARM LLC TAIWAN BRANCH USA,NO 455 WUSHULIN WUSHU VIL HOUBI DIST TAINAN CITY 73191 TAIWAN R O C ,-1,,,,
,KR,3I INC,9F-903 465 DONGDAEGU-RO DONG-GU DAEGU KOREA 41260 TEL: +821056990228 ,-1,,,,
,CN,3L ASIA LIMITED, 21/F ON HING BLDG 1 ON HING TERRACE CENTRAL HONG KONG HONG KONG ISLAND HK ,-1,,,,
,DE,3L CONSUMER PRODUCTS A,S VIB KVEJ 100 TOMMERUP 5690 DK ,-1,,,,
,HK,3L ELECTRONICS INTERNATIONAL TRADE LTD,C/O UPS SCS HK THE SIXTH INDUSTRIAL ZONE NANLANG TZHONGSHAN CITY GUANGDONG PROVINCE ,-1,,,,
,KR,3LAB KOREA CO LTD, 3LAB KOREA 167 EUNPYUNG-RO #4FL EUNPYUNG-GU SEOUL SOUTH KOREA ,-1,,,,
,CA,3M CANADA COMPANY, 300 TARTAN DR LONDON ON N5V 4M9 CA ,-1,,,,
,CN,3M CHINA LTD,NO 222 TIANLIN ROAD SHANGHAI 200233 CN ,-1,,,,
,BR,3M DO BRASIL LTDA, ROD RAPOSO TAVARES KM 171 45 985 371/0062-20 18200-000 ITAPETININGA BR ,-1,,,,
,BE,3M EMEA GMBH KUEHLHAUSSTRASSE,2 LANGENTHAL 4900 SWITZERLAND ,-1,,,,
34.0,SG,3M INNOVATION SINGAPORE PTE LTD, 10 ANG MO KIO STREET 65 TECHPOINT #01-01 ,36,100.0,66.66666666666667,85.50724637681161,No
,MY,3M INNOVATION SINGAPORE PTE LTD,GWI MANUFACTURING SDN BHD ON BEHALF OF 3M INNOVATION SINGAPORE PTE LTD 81300 SKUDAI JOHOR MALAY SIA 81300,-1,,,,
34.0,SG,3M INNOVATION SINGAPORE PTE LTD, 10 ANG MO KIO STREET 65 TECHPOINT 01-01 SINGAPORE 569059 ,36,100.0,83.11688311688312,92.65951439864484,No
34.0,SG,3M INNOVATION SINGAPORE PTE LTD, 10 ANG MO KIO STREET 65 TECHPOINT SINGAPORE 569059 SINGAPORE ,36,100.0,83.11688311688312,92.65951439864484,No
35.0,JP,3M JAPAN PRODUCTS LIMITED, 6-7-29 KITASHINAGAWA ,-1,,,,
35.0,JP,3M JAPAN PRODUCTS LIMITED, 6-7-29 KITASHINAGAWA SHINAGAWA-KU TOKYO 141-8684 JAPAN ,-1,,,,
,PA,3M LATIN AMERICA REGIONAL DC,RUC: 2209345-1-774636 DV52 PANAMERICA CORPORATE CENTER NORTECA ,-1,,,,
,BR,3M MANAUS INDUSTRIA DE PRODUTOS QUI ICOS LTDA, AV TORQUATO TAPAJOS 19307 ,-1,,,,
,JP,3M PLASTIK VE METAL DIS TIC VE SAN 8TH, STREET NO:43 KAYSERI SERBEST BOLGE KAYSERI TR KAYSERI TR ,-1,,,,
,SG,3M TECHNOLOGIES SG PTE LTD, 703 CEVA LOGISTICS 8 JURONG PIER ROAD #05-01 SINGAPORE 619160 SG ,-1,,,,
,VN,3M VIETNAM LTD,20TH FLOOR MAPLETREE BUSINESS CENTRE BUILDING 1060 NGUYEN VAN LINH STREET TAN PHONG WARD DISTRICT 7 HO CHI MIVN ,-1,,,,
36.0,DE,3NINE INDUSTRIES AB,CYLINDERAGEN 12 13152 NACKA STRAND ,37,100.0,87.71929824561404,94.6605644546148,No
36.0,DE,3NINE INDUSTRIES AB,CYLINDERVAGEN 12 13152 NACKA STRAND SWEDEN ,37,100.0,87.71929824561404,94.6605644546148,No
,NL,3P,34 RUE MOZART 92110 CLICHY CEDEX FR ,38,100.0,100.0,100.00000000000001,No
,DE,3P,34 RUE MOZART 92110 CLICHY CEDEX FR ,38,100.0,100.0,100.00000000000001,No
37.0,VN,3P METAL JOINT STOCK COMPANY, B20424A HAMLET 2 TAN NHUT COMMUNE BINH CHANH DISTRICT HO CHI MINH CITYVIET NAM ,39,100.0,87.17948717948718,94.42586399108139,No
37.0,VN,3P METAL JOINT STOCK COMPANY, B20424A HAMLET 2 TAN NHUT COMMUNE BINH CHANH DISTRICT HO CHI MINH C ITY VIET NAM ,39,100.0,87.17948717948718,94.42586399108139,No
,HK,3P SOURCES CO LTD, FLAT 3 8/F HARRY INDUSTRIAL BLDG 49-51 AU PUI WAN STREET FOTAN SH ATIN ,-1,,,,
,DE,3P TECHNIK FILTERSYSTEME GMBH,ROBERT-BOSCH-STRASSE 16-18 BAD UEBERKINGEN 73337 ,-1,,,,
,VN,3Q VINA CO LTD, 8 AN DUONG VUONG ST WARD 16 DIST 8 ,-1,,,,
,IN,3S CORP, VPO GADAIPUR RAJA GARDEN BEHIND FOCAL POINT ,-1,,,,
,MX,3S DIVISION LOGISTICA S DE RL DE,CARR LIBRAMIENTO MANUEL PEREZ TREV PIEDRAS NEGRAS 26068 MEXICO RFC: SDL160912QR9 ,-1,,,,
,CN,3S IMPORT & EXPORT SHIJIAZHUANG C,3401-3407 ROOM HENGDA PLAZA NO 77 ZHONGSHAN WEST ROAD SHIJIAZHUANG HEBEI CHINA,-1,,,,
,CN,3S INTERNATIONAL CO LTD, NO 42 PARK ROAD ,-1,,,,
38.0,CN,3S INTERNATIONAL CORP,IMITED 1511 ROYAL PARK TOWER NO 18 WUYI MIDDLE ROAD FUZHOU FUJIAN 350001 ,40,100.0,100.0,100.00000000000001,No
38.0,CN,3S INTERNATIONAL CORP,IMITED 1511 ROYAL PARK TOWER NO 18 WUYI M IDDLE ROAD FUZHOU FUJIAN CHINA ,40,100.0,89.32038834951457,95.35669058674549,No
38.0,CN,3S INTERNATIONAL CORP,IMITED 1511 ROYAL PARK TOWER NO 18 WUYI MIDDLE ROAD FUZHOU FUJIAN CHINA 350005 ,40,100.0,89.32038834951457,95.35669058674549,No
39.0,JP,3SJAPAN INC,6-6-32 SHINMEI-CHO TAKAHAMA-CITY AICHI JAPAN 444-1305 TEL:0566-45-5330 ,41,100.0,100.0,100.00000000000001,No
39.0,JP,3SJAPAN INC,6-6-33 SHINMEI-CHO TAKAHAMA-CITY AICHI 444-1305 JAPANJP TAKAHAMA-CITY 444-1305 ,41,100.0,75.43859649122807,89.3211289092296,No
39.0,JP,3SJAPAN INC,6 6 32 SHINMEI CHO ,-1,,,,
39.0,JM,3SJAPAN INC,6-6-32 SHINMEI-CHO TAKAHAMA-CITY AICHI JAPAN 444-1305 TEL:0566-45-5330 ,41,100.0,75.43859649122807,89.3211289092296,No
,VN,3T VINA SEW EXPORT CO LTD, GHEN VILLAGE LIEN SON COMMUNE LUO NG SON DISTRICT HOA BINH PROVINCE VIET NAM ,-1,,,,
,CN,3TOPS TECHNOLOGYHK CO LTD, 510 5F 1ST BLD QI LIFE HUASHENG AI INDU PARK NO DONGHUAN 2ND RD LONGHUA SHENZHEN CHINA 518109 ,-1,,,,
,CN,3Y POWER TECHNOLOGY TAIWAN INC,2ND FLOOR NO 576 SEC 1 MINSHENG N RAOD GUEISHAN SHIANG ,-1,,,,
,DE,4 COILS TECH S R O,VRAZSKA 143 PRAHA 5 - RADOTIN 15300 ,-1,,,,
,IN,40002,CENTURY DISTRIBUTION SYSTEMS INC A-701 GODREJ COLISEUM BEHIND EVER ARD NAGAR OFF SOMAIYA ROAD SION EAST MUMBA ON BEHALF OF 40002,-1,,,,
40.0,DZ,41ZERO42 SRL, VIA MONTE MONGIGATTO 24 ,42,100.0,70.17543859649122,87.0327993897788,No
40.0,IT,41ZERO42 SRL, VIA MONTE MONGIGATTO 24 4 FIORANO MODENESE 41042 IT ,42,100.0,70.17543859649122,87.0327993897788,No
,GB,49 HALL BARN, ROAD ISLEHAM CAMBRIDGE CB7 5QZ UNITED KINGDOM ,-1,,,,
,VN,49 MOO,CENTURY DISTRIBUTION SYSTEMS INC ON BEHALF OF 49 MOO 1 BANGBUATONG-LADBUALUANG R D NONTHABURI 11150 TH,-1,,,,
,PK,49TH NORTH SMC PVT LTD, DAVIS ROAD LAHORE PUNJAB PAKISTAN 42 3214710 ,-1,,,,
41.0,LK,4A YARN DYEING LTD,KAICHA BARI BAIPAIL SAVAR DHAKA-1340 BANGLADESH ,43,100.0,77.61194029850746,90.26606099935108,No
41.0,BD,4A YARN DYEING LTD,KAICHA BARI DHAKA 1340 BD ,43,100.0,63.829787234042556,84.27382053654024,No
41.0,BD,4A YARN DYEING LTD,KAICHA BARI BAIPAIL DHAKA-1340 ,43,100.0,63.829787234042556,84.27382053654024,No
,CN,4B WORLD TECHNOLOGY CO LTD, NO 7 LANER ROAD LONGXIN COMMUNITY BAOLONG STREET LONGGANG DISTRICT SHENZHEN GUANGDONG 518116 CN ,-1,,,,
,IN,4CAB INDUSTRIES,UNIT NO 1 DAMA INDUSTRIAL ESTATE DHUMAAL NAGAR WALIV VILLAGE ,-1,,,,
,CN,4FASHIONS LTD,ROOM 203 NO 5 THE 5TH STREET LUOYONG BEI ROAD ,-1,,,,
42.0,DE,4FASTENING GMBH,AM PFAHLGRABEN 4 35415 POHLHEIM DE ,44,100.0,100.0,100.00000000000001,No
42.0,DE,4FASTENING GMBH,AM PHALGRABEN 4 POHLHEIM 35415 DE ,44,100.0,93.33333333333333,97.10144927536231,No
42.0,ES,4FASTENING GMBH,AM PFAHLGRABEN 4 POHLHEIM HE 35415 GERMANY ,44,100.0,83.01886792452831,92.61689909762102,No
42.0,JP,4FASTENING GMBH,AM PFAHLGRABEN 4 POHLHEIM 35415 DE ,44,100.0,83.01886792452831,92.61689909762102,No
,PK,4FIT INTERNATIONAL MARALA, ROAD MURAD PUR SIALKOT 51310 PAKISTAN SIALKOT PK ,-1,,,,
,DE,4JET TECHNOLOGIES GMBH,KONRAD ZUSE STRASSE 1 52477 ALSDORF DE ,-1,,,,
43.0,DE,4M MP SRL, VIILE SIBIULUI NO 1 ,45,100.0,81.08108108108108,91.77438307873092,No
43.0,IT,4M MP SRL, VIILE SIBIULUI NR 1 SIBIU RO ,45,100.0,81.08108108108108,91.77438307873092,No
,IT,4M PLANTS SRL, 54 VIA A MANZONI MAGNAGO MI MI 20020 IT ,-1,,,,
,ES,4N INDUSTRIAL SL,CARRETERA DE BARCELONA 414 ,-1,,,,
,GB,4PL COMPLIANCE LTD,BRICKFIELD LANE CHANDLERS FORD IND USTRIAL ESTATE ,-1,,,,
,KR,4S INC,912-201 15 GUKCHAEGYEONGUWON 1-RO SEJONG-SI REPUBLIC OF KOREA ,-1,,,,
,CN,4S SPORT EQUIPMENT,BAISHIDONG VILLAGE QUICHANG TOWN HUIYANG DISTRIC ,-1,,,,
,IS,4SLOG,1200 ROUTE DES BLEUETS ETAINHUS 76430 FR ,-1,,,,
,BE,4STOX NV,NOORDERLAAN 614 ANTWERP VAN 2030 BELGIUM ,-1,,,,
,CN,4TRUSTY INDUSTRIAL CO LTD, ROOM 518 BUILDING JINHUIQIU NO 5 LANGSHAN ROAD 2 ,-1,,,,
,CN,4U SPORTING GOODS CO LTD, NO 13 PANLING DADI ROAD PANLING IN DUSTRIAL AREA TIANBIAN VILLAGE SHIPAI TOWN ,-1,,,,
44.0,TR,5 BOLGE,HALITLAR GIDA SAG URUN SAN VE TIC STI BASPINAR ORGANIZE OSB MAH O B 5 BOLGE 83561 NOLU CAD NO: 28 HITKAMIL/ GAZIANTEP,46,100.0,100.0,100.00000000000001,No
44.0,JP,5 BOLGE,HALITLAR GIDA SAG URUN SAN VE TIC STI BASPINAR ORGANIZE OSB MAH O B 5 BOLGE 83561 NOLU CAD NO: 28 HITKAMIL/ GAZIANTEP,46,100.0,100.0,100.00000000000001,No
44.0,TR,5 BOLGE,HALITLAR GIDA SAG URUN SAN VE TIC L STI BASPINAR ORGANIZE OSB MAH O B 5 BOLGE 83561 NOLU CAD NO: 28 HITKAMIL/ GAZIANTEP,46,100.0,100.0,100.00000000000001,No
,DO,5 ROCAS SRL, C/ 1RA 1 ,-1,,,,
,CN,5 STAR MFG CO LTD, 4008-4009 40/F ONE PACIFIC PLACE 88 QUEENSWAY ,-1,,,,
,GB,5 TOPSFIELD, ROAD LONDON N8 8SN ,-1,,,,
,TW,5 WIN TECHNOLOGY INC,NO 7 KAIFA 4TH RD RENDE DIST ,-1,,,,
,NI,505 CUSTOM TRADE S A,SALIDA NORTE FRENTE DONDE FUE LA CABANA SAN RAMON ESTELI NICARAGUA NIC ,-1,,,,
45.0,CN,509 CREW HONG KONG LIMITED, UNIT 511 5/F LIPPO SUN PLAZA 28 CANTON ROAD KOWLOON ,47,100.0,100.0,100.00000000000001,No
45.0,CN,509 CREW HONG KONG LIMITED, UNIT 511 5/F LIPPO SUN PLAZA 28 CANTON ROAD KOWLOON HONG KONG HONG KONG ,47,100.0,100.0,100.00000000000001,No
,ES,51 RASARITULUI, STREET DN7 070000 BUFTEA ILFOV COUNTY ROMANIA TEL: 0040 372833300 ,-1,,,,
46.0,CN,515 PRODUCTION LLC,RM D1-08 7/F HANG FUNG IND BLDG HOK YUENSTREET HUNG HOM KOWLOON HONG KONG CN ,48,100.0,90.0,95.65217391304348,No
46.0,CN,515 PRODUCTION LLC,RM D1-08 7/F HANG FUNG IND BLDG HOK YUEN STREET HUNG HOM KOWLOON ,48,100.0,90.0,95.65217391304348,No
,PA,55 MALBEC,RIVADAVIA 244 PISO2 OFICINA 2 5500 CIUDAD MENDOZA ARGENTINA ,-1,,,,
,CL,55 MALBEC S A,VIAMONTE 4620 RIVADAVIA 244 MENDOZA 5505 AR ,-1,,,,
,CO,55 MALBEC S A,NICOLAS ARANITI - 0261 3343896 30-71185068-2 MENDOZA AR ,-1,,,,
,CL,55 MALBEC SA,LARREA 723 CHACRAS DE CORIA ,-1,,,,
,BS,5BLUE PROCESS EQUIPMENT INC,2303 8 STREET NISKU AB T9E 7Z3 CANADA ,-1,,,,
47.0,CN,5ELEM HI TECH CORP, 986 MACHANG ROAD JI ANGYAN ECONOMI C DEVELOPMENT ZONE ,49,100.0,75.78947368421053,89.47368421052632,No
47.0,CN,5ELEM HI TECH CORP, NO 986 MACHANG ROAD JIANGYAN ECONOMIC DEVELOPMENT ZONE JIANGYAN CN ,49,100.0,69.42148760330579,86.70499461013296,No
47.0,CN,5ELEM HI TECH CORP, NO 986 MACHANG ROAD ECONOMIC DEVEL OPMENT DISTRICT JIANGYAN CITY JIAN GSU PROVINCE CHINA 225500 ,49,100.0,69.42148760330579,86.70499461013296,No
,PT,5ENSESINFOOD S A,RUA DO OUTEIRO N 589 4475-150 MAIA PORTUGAL ,-1,,,,
,DE,5N PLUS LUBECK GMBH,KANINCHENBORN 24-28 ,-1,,,,
48.0,CN,5N PLUS SHANGYU CO LTD, NO 19 WEIYI EAST ROAD SHANGYU IND USTRY ZONE HANGZHOU BAY SHANGYU CITY ZHEJIANG CHINA 312369 SHANGYU CN ,50,100.0,68.96551724137932,86.50674662668666,No
48.0,CN,5N PLUS SHANGYU CO LTD, NO 19 WEIYI EAST ROAD SHANGYU INDUSTRY ZONE HANGZHOU BAY ,50,100.0,68.96551724137932,86.50674662668666,No
,DE,5N PV GMBH,ODERLANDSTRASZE 104 15890 EISENHUETTENSTADT GERMANY ,-1,,,,
,CN,5PIGROUP, CONSULTING S L C FRANCESC LAYRET 75 8O 3A 08100 MOLLET DEL VALLES ,-1,,,,
,CN,6 PENG XIANG,CENTURY DISTRIBUTION SYSTEMS SHENZHEN LTD ON BEHALF OF 6 PENG XIANG RD HUIZHOU 44 516121 CN,-1,,,,
,VN,628 IMPORT & EXPORT TRADE SERVICE PRODUCTION CO LT,D TAN BINH IZ TAY THANH TAN PHU ,-1,,,,
,JP,6347291 CANADA INC,465 BOUL ALEXANDRE TACHE GATINEAU QC J9A 1M8 CANADA ,-1,,,,
,PL,7 ANNA SP ZOO SPOLKA KOMANDYTOWA,UL: POTOKOWA 20D GDANSK POLAND ,-1,,,,
,CN,7 EASY HOUSEWARE LTD,ROOM A201 NO 2038 TAIHE ROAD SHANGHAI 201901 CHINA SHANGHAI CHINA ,-1,,,,
,IN,7 HILLS GRANIMARMO PRIVATE LIMITED, PLOT NO 44 45 KHASRA NO 884/9 VIL AJMER RJ 305801 INDIA ,-1,,,,
,TW,7 LEADER CORP,NO 98 110 1ST RD TAICHUNG INDUSTRIAL PARK ,-1,,,,
,IN,7 SEAS,862/11 VAKIL COLONY JAWAHAR KI NADI ,-1,,,,
,IN,7 SEAS,UNIT II H 239-46 BORANADA INDUSTRIAL PARK JODHPUR RAJASTHAN 342001 INDIA ,-1,,,,
,CA,7 SEAS MEDIPHARM,68 MASSIE ST ,-1,,,,
,VN,72 DAI NGHIA CO LTD, NO 72 390 ROAD CAY SOP VILLAGE TAN AN HOI COMMUNE CU CHI DISTRICT ,-1,,,,
,PH,72963481MUHAMMAD ASAD C/O ASIAN TIGERS,LANE MOVING & STORAGE N4 JY & SONS COMPOUND VETERANS CENTER TAGUIG 1631 METRO MANILA PHILIPPINES ,-1,,,,
49.0,VN,76 ONE MEMBER LIMITED,LIALIBILITY COMPANY KIEU KY - GIA LAM - HA NOI TEL: 84 4 38276386; 36781603 ,51,100.0,96.2962962962963,98.38969404186797,No
,VN,76 ONE MEMBER LIMITED, LIABILITY STADIUM BOULEVARD 02-01 SINGAPORE 397799 SG ,-1,,,,
,VN,76 ONE MEMBER LIMITED, LIALIBILITY KIEU KY - GIA LAM - HA NOI TEL 84 4 38276386; 36781603 FAX 84 4 38 276406 084 ,51,100.0,82.5,92.3913043478261,No
49.0,VN,76 ONE MEMBER LIMITED,LIALIBILITY COMPANY KIEU KY - GIA LAM - HA NOI TEL: 84 4 38276386; 36781603 FAX: 84 4 38276406 ,51,100.0,82.5,92.3913043478261,No
,IN,7G GLOBAL LINK SOLUTIONS PVT LTD,FIRST FLOOR GALI NO 02 VILLAGE HA HAZIPUR SECTOR 104 NOIDA GAUTAMBUD ,-1,,,,
50.0,KH,8 STAR SPORTSWEAR LTD,LOT 0176 DAMNAK THOM VILLAGE SANGKAT STOEUNGMEAN CHEY KHAN MEAN CHEY PHNOM PE NH CAMBODIA TEL 85523424 855 ,52,100.0,89.65517241379311,95.50224887556223,No
50.0,KH,8 STAR SPORTSWEAR LTD,LOT 0176 DAMNAK THOM VILLAGE SANGKAT STOEUNGMEAN CHEY KHAN MEAN CHEY PHNOM PENH ,52,100.0,89.65517241379311,95.50224887556223,No
,TH,8/8 MOO,10 NONGPRUE PHANAT NIKHOM CHONBURI 20140 THAILAND ,-1,,,,
,CN,81 DAMING,CHAMPION POWER EQUIPMENT INC O/B #81 DAMING ROAD NINGBO CN,-1,,,,
51.0,KR,815 HEALTHY&BEAUTIFUL,78-27 SEODUNMUL-GIL POSEUNG-EUP P YEONGTAEK-SI KR ,53,100.0,60.86956521739131,82.98676748582231,No
51.0,KR,815 HEALTHY&BEAUTIFUL,78-27 SEODUNMUL-GIL POSEUNG-EUP PYEONGTAEK-SI GYEONGGI-DO REPUBLIC OF KOREA ,53,90.47619047619048,90.47619047619048,90.4761904761905,No
51.0,KR,815 HEALTHY&BEAUTIFUL CO LTD,78-27 SEODUNMUL-GIL POSEUNG-EUP PYEONGTAEK-SI GYEONGGI-DO KOREA ,53,90.47619047619048,82.75862068965517,87.12072535160993,No
51.0,KR,815 HEALTHYANDBEAUTIFUL CO LTD,7827 SEODUMULGIL POSEUNGEUP PY EONGTAEKSI GYEONGGIDO KOREA 1781 ,53,100.0,65.54621848739495,85.02009499451955,No
51.0,KR,815HEALTHY AND BEAUTIFUL CO LTD,78-27 SEODUNMUL-GIL POSEUNG- EUP PYEONGTAEK-SI GYEONGGI- DO REPUDLIC OF KOREA ,53,100.0,65.54621848739495,85.02009499451955,No
52.0,JM,8789509 CANADA INC,32 JONATHAN GATE THORNHILL ON L4J 5K3 CANADA ATTN: ALLEN SUN TELL:6479663186 EMAIL: T-E-METAL2013@HOTMAIL COM ,54,100.0,97.53086419753086,98.92646269457865,No
52.0,JM,8789509 CANADA INC,32 JONATHAN GATE THORNHILLON L4J 5K3 CANADA ATTN: ALLEN SUN TELL:6479663186 EMAIL: T-E-METAL2013@HOTMAIL COM ,54,100.0,97.53086419753086,98.92646269457865,No
,NL,8BBA POMPEN & BUIZEN B V, ZUTPHENSESTRAAT 246 APELDOORN 7325 WV NL ,-1,,,,
,HK,8BPLUS LIMITED, 70 MORRISON HILL ROAD WAN CHAI HK ,-1,,,,
,DE,8DEVICES UAB,ANTAKALNIO 17 3 02580277E8 ,-1,,,,
,CN,8LG ELECTRONICS TIANJIN APPLIANCES CO LTD, XING DIAN ROAD BEI CHEN DIS T TIANJIN CHINA ,-1,,,,
,NL,8PE FABRYKA VIKON LUX,58009 CHERNIVTSI SICHOVYKH STRILTSIV STREET 34B UKRAINE,-1,,,,
,IN,9 HANDS,16/143 GEETA COLONY ,-1,,,,
53.0,SG,9 STAR APPARELS INDUSTRIES LTD,PLOT# 56 VATULIA HOUSE # 116 NURANI MADRASA ROAD # 05 TURAG DHAKA-1230 BANGLADESH ,55,100.0,83.47826086956522,92.81663516068053,No
53.0,SG,9 STAR APPARELS INDUSTRIES LTD,PLOT # 56 VATULIA HOUSE # 116 NURANI MADRASA ROAD# 05 TURAG DHBD ,55,100.0,83.47826086956522,92.81663516068053,No
,IT,900 PROJECT SRL, VIA CAMPOROSOLO N 198 SAN BONIFACIO 37047 IT ,-1,,,,
,CN,91440101MA5AL8933J GUANGZHOU QIAOBAYOUCHUANG TECHNOLOGY CO LTD, NO : 102 BUILDING 4 XIANGYUN XIN STREET 89 BAIYUN ,-1,,,,
,CA,9164 4203 QUEBEC INC,DEVA PAPER 500 RUE LEGER RIVIERE-BEAUDETTE QC J0P 1R0 CANADA ,-1,,,,
,AF,9250611759, ,-1,,,,
,CA,9321 7073 QUEBEC INC,5086 FRANCOIS CUSSON CANADA H4C 3K4 ,-1,,,,
,CA,9346 5797 QUEBEC INC,2212 AVENUE WILSON ,-1,,,,
,CA,9364 4649 QUEBEC INC,3490 BOUL DE CHENONCEAU LAVAL QC H7T 3B6 CANADA ,-1,,,,
,CA,9406 9184 QUEBEC INC,ENSEIGNES 3152 RUE JOSEPH MONIER TERREBONNE QC J6X 4R1 DEALER REGISTRATION NO 2108677-1 ,-1,,,,
54.0,DE,950TH TRANSPORTATION COMPANY SDD,D-27580 BREMERHAVEN GERMANY UNIT 22419 APO AE 09096-2419 PHONE: 49 0 4718918032 ,56,98.30508474576271,100.0,99.04200442151807,No
54.0,DE,950TH TRANSPORTATION COMPANY SDD,D-27580 BREMERHAVEN GERMANY UNIT 22419 APO AE 09096-2419 PHONE: 49 0 4718918032 / FAX: 49 ,56,98.30508474576271,94.44444444444444,96.62654548431999,No
54.0,DE,950TH TRANSPORTATION COMPANY SDDC,D-27580 BREMERHAVEN GERMANY UNIT 22419 APO AE 09096-2419 PHONE: 49 0 4718918032 ,56,98.30508474576271,94.44444444444444,96.62654548431999,No
,CA,9937510 CANADA CORP, 44 FASKEN DRIVE UNIT 18 & 19 ,-1,,,,
,JP,9999 3110001014191 SANKA CO LTD, 2153-5 TSUKANOME SANJO-CITY NIIGATAJAPAN 955-0055 ,-1,,,,
55.0,IN,A & A LABELS,468 & 469 UDYOG VIHAR PHASE-V ,57,100.0,84.0,93.04347826086958,No
55.0,IN,A & A LABELS,468-469 UDYOG VIHAR PHASE-5 GURGAON ,57,100.0,84.0,93.04347826086958,No
,GR,A & CH IFANTIS S A,FOOD INDUSTRY 4 SENEKA STR 15TH KLM NAT ROAD ATHENA-LAMIAP O BOX 51087-145 10 K IFISSIA GR ,-1,,,,
,CN,A & D HOLDINGS LIMITED, ROOM 801 HANLEY HOUSE 776-778 NATHAN ROAD ,-1,,,,
,TW,A & D JASMINE INTERNATIONAL CO LTD, 602 JIAOSU RD KAOHSIUNG CITY YANCHAO DISTRICT 824 TW ,-1,,,,
,DE,A & E KELLER GMBH & CO,KG NIEDEREIMERFELD 10 ,58,95.65217391304348,82.6086956521739,89.98109640831758,No
,HK,A & E RISING TECHNOLOGIES LTD,UNIT 01-03 66/F THE CENTER 99 QUEENS ROAD CENTRAL ,59,100.0,78.87323943661973,90.8144519289651,No
,HK,A & E RISING TECHNOLOGIES LTD,66/F THE CENTER 99 QUEEN S ROAD CENTRAL HONG KONG HONG KONG ISLAND HK ,59,100.0,78.87323943661973,90.8144519289651,No
,DE,A & F GROSSERIEN GMBH JOHN SKILTON, STR 22 ,-1,,,,
56.0,CN,A & I INDUSTRIES LTD,KARON INC O/B A & I INDUSTRIES LTD SHUNDE FOSHAN FUAN INDUSTRY PARK LELIU TOWN SHUNDE DISTRICT,60,100.0,59.79381443298969,82.51904975347378,No
56.0,VN,A & I INDUSTRIES LTD,KARON INC O/B A & I INDUSTRIES LTD SHUNDE FOSHAN,60,100.0,59.79381443298969,82.51904975347378,No
57.0,PK,A & J APPAREL,LA-6/A BLOCL 22 F B INDUSTRIAL AREA KARACHI PAKISTAN ,61,84.21052631578947,97.43589743589743,89.96068767235816,No
57.0,PK,A & J APPAREL PVT LTD, LA-6/A BLOCK - 22 F B INDUSTRIAL AREA KARACHI - PAKISTAN ,61,84.21052631578947,97.43589743589743,89.96068767235816,No
,VN,A & J VIETNAM CO LTD, LOT NO 47-1 0 N16 STREET PHUOC DONG IP GO DAU TAY NINH VN ,62,100.0,59.34065934065934,82.32202580028667,No
,CN,A & L ENTERPRISES, RM 11 11/FL YUEN LONG TRADING CE NTRE 33 WANG YIP STREET WEST YUEN LONG HONGKONG CN ,-1,,,,
58.0,CN,A & L GLOBAL TRADE CO LTD,UNIT 2505 25/F THE SUNS GROUP CEN TRE NO 200 GLOUCESTER ROAD WANCHA I HONG KONG 999077 ,63,95.65217391304348,83.80952380952381,90.50319560716538,No
58.0,CN,A & L GLOBAL TRADE CO LTD, UNIT 2505 25/F THE SUN&APOS;S GRO UP CENTRE NO 200 GLOUCESTER ROAD W ANCHAI HONG KONG 999077 ,63,95.65217391304348,70.9090909090909,84.89431173741194,No
,CN,A & O GLOBAL LIMITED, 18TH FLOOR TUNG WAI COMMERCIAL BUI LDING GLOUCESTER ROAD WANCHAI ,-1,,,,
,GR,A & S CHAVELAS G P,KOUTSELIO IOANNINA 45500 GR ,-1,,,,
,IT,A & T EUROPE S P A,VIA SOLFERINO 27 C P 7 46043 CASTIGLIONE D/S MN ITALY ,64,75.0,76.31578947368422,75.5720823798627,No
,IT,A & T EUROPE SPA,VIA SOLFERINO 27 ,64,82.35294117647058,59.57446808510638,72.44925722370354,No
,NI,A & T NICARAGUA S A,COYOTEPE 800 MTS HACIA TIPITAP ZONA FRANCA SAN GABRIEL MASAYA NI DRIVAS@CSHAPE COM DRIVAS@CSHAPE CO ,-1,,,,
,CN,A & U GROUP,LIMITED BLOCK C 23/F LOCKHART ROAD 315-3 21 LOCKHART ROAD WAN CHAI HONG KO NG ,65,100.0,100.0,100.00000000000001,No
,JP,A &L NORTH AMERICA INC5,NIPPON A AND L INC ON BEHALF OF A &L NORTH AMERICA INC5-33 KITAHAMA 4-CHOME CHUO-KU,-1,,,,
,CN,A 1 INDUSTRIES LTD,LIAOWU VILLAGE SHUIBEI AREA SHIPAI TOWN DONGGUAN CITY GUANGDONG PROVINCE CHINA ,-1,,,,
,IN,A 2 Z FILTRATION SPECIALITIES PRIVA TE LIMITED, 33 D - 1 INFOCITY SECTOR GURGAON HARYANA 121001 IN ,66,75.0,69.44444444444444,72.58454106280195,No
59.0,IN,A A CANVAS COMPANY, 177-A AZAD MARKET DELHI-110006 INDIA ,67,100.0,86.79245283018868,94.25758818703856,No
59.0,IN,A A CANVAS COMPANY, 177 A AZAD MARKET DELHI 110006 INDIA DELHI110006 IN ,67,100.0,86.79245283018868,94.25758818703856,No
60.0,PK,A A ENTERPRISES, FIRST FLOOR DP-5 SECTOR 12/D NORTH KARACHI INDUSTRIAL AREA PAKISTAN ,68,100.0,88.46153846153845,94.98327759197325,No
60.0,PK,A A ENTERPRISES, FIRST FLOOR DP-5 SECTOR 12-D NORTH KARACHI INDUSTRIAL AREA KARACHI PAKISTAN KARACHI PK PK ,68,100.0,80.99173553719008,91.73553719008265,No
60.0,PK,A A ENTERPRISES, FIRST FLOOR DP-5 SECTOR 12-D NORTH KARACHI INDUSTRIAL AREA KHI ,68,100.0,80.99173553719008,91.73553719008265,No
,CN,A A FOOTWEAR CO LTD, NEWVILLAGE 168 GUANGHUI ROAD LUWU INDUSTRIAL DISTRICT WANJIANG SHENZHEN SHENZHEN CHINA 523039 ,-1,,,,
,IT,A A M S R L, P LE GUERRINO MALETTI 1 ,-1,,,,
61.0,JP,A A N JAPAN CO LTD, 263-2 ROPPOGAOKA YOTSUKAIDO-SHI C HIBA 284-0008 JAPAN TEL:043-312-2496 ,69,76.92307692307692,80.85106382978724,78.6308973172988,No
61.0,JP,A A N JAPAN CO LTD, 263-2 ROPPOGAOKA YOTSUKAIDO-SHI JP ,69,76.92307692307692,81.15942028985508,78.76496534341526,No
,IL,A A POLITIV 1999 LTD,OMPANY NO:512870072 KIBBUTZ EINAT 4880500 IS ,70,100.0,60.86956521739131,82.98676748582231,No
,IL,A A POLITIV 1999 LTD,3 KIBBUTZ EINAT EINAT 48805 ISRAEL ,70,100.0,60.86956521739131,82.98676748582231,No
62.0,IN,A A STONE IMPEX,F-251 RANPUR KUBER INDUSTRIAL AREA ,71,100.0,90.9090909090909,96.04743083003953,No
62.0,IN,A A STONE IMPEX,F-251 KUBER INDUSTRIES AREA RANPU R ,71,100.0,90.9090909090909,96.04743083003953,No
63.0,GU,A ADVANTAGE FORWARDERS INC,1450 WESTGATE PKY DOTHAN AL 36304-1243PO BOX 960 ,72,100.0,87.09677419354838,94.38990182328192,No
63.0,GU,A ADVANTAGE FORWARDERS INC,1450 WESTAGTE PKY DOTHAN AL 36304-1243 ,72,100.0,96.2962962962963,98.38969404186797,No
63.0,GU,A ADVANTAGE FORWARDERS INC,1450 WESTGATE PKY DOTHAN AL 36304-1243 ,72,100.0,96.2962962962963,98.38969404186797,No
64.0,DE,A AGRATI S P A,VIA PIAVE 28-30 VEDUGGIO CON COLZANO 20837 IT ,73,80.0,82.14285714285714,80.93167701863355,No
64.0,BE,A AGRATI S P A,VIA PIAVE 28/30 ,73,80.0,70.27027027027026,75.76968272620446,No
64.0,IT,A AGRATI SPA,VIA PIAVE 28/30 20837 VEDUGGIO CON COLZANO MB ITALIA ,73,100.0,76.19047619047619,89.64803312629401,No
64.0,IT,A AGRATI SPA,VIA PIAVE 28/30 VEDUGGIO CON COLZANO MB 20837 ITALY ,73,100.0,77.41935483870968,90.18232819074335,No
64.0,IT,A AGRATI SPA,VIA PIAVE 28/30 VEDUGGIO CON COLZANO MB ITALY 20837 ,73,100.0,77.41935483870968,90.18232819074335,No
64.0,IT,A AGRATI SPA,VIA PIAVE 28/30 20837 VEDUGGIO CON ,73,100.0,77.41935483870968,90.18232819074335,No
,DE,A AGRATI SPA C/O CENTRO LOGISTICO,VIA FERNANDO SANTI 16/18 ,-1,,,,
,TR,A AKSULAR GIDA TIC VE SAN AS,ORGANIZE SANAYI BOLGESI 16 CAD NO:6 CORUM ,-1,,,,
,TH,A AND B TRADE CO LTD, 93/15 MOO 10 KANCHANAPISEK ROAD BANGRAKPATTANA BANGBUATHONG NONTHABURI 11110 THAILAND ,74,66.66666666666667,58.015267175572525,62.905188627060525,No
65.0,CN,A AND D MANUFACTURING CO LTD, ROOM 1003 10/F TOWER 1 LIPPO CEN TRE 89 QUEENSWAY ADMIRALTY ,75,100.0,92.47311827956989,96.72744273024779,No
65.0,CN,A AND D MANUFACTURING CO LTD, ROOM 1003 10-F TOWER 1 LIPPO CENTRE 89 QUEENSWAY ADMIRALTY HK ,75,100.0,92.47311827956989,96.72744273024779,No
,CN,A AND H QINGDAO LTD DONGGUAN BRANCH, ROOM 105 BUILDING 7 NO 8 WEIYUAN NORTH AND SOUTH AVENUE HUMEN TOWN DONGGUAN CN ,76,91.30434782608697,74.22680412371135,83.8793288250541,No
66.0,NO,A AND J CAMBODIA CO LTD, TAI SENG BAVET SPECIAL ECONOMIC ZONE NATIONAL ROAD NO 1 BAVET CITY ,77,100.0,90.52631578947368,95.88100686498858,No
66.0,VN,A AND J CAMBODIA CO LTD, TAI SENG BAVET SPECIAL ECONOMIC ZONE NATIONAL ROAD NO 1 ,77,100.0,90.52631578947368,95.88100686498858,No
,NO,A AND J CAMBODIA CO LTD, NATIONAL ROAD NO 1 SVAY RIENG KH ,-1,,,,
,DE,A AND M LAKTOMAR SP Z OO,UL PRZEMYSLOWA 9C KOZIENICE 26900 PL ,-1,,,,
,CN,A AND S ENTERPRISES COMPANY, RM2 13/F CROWN INDUSTRIAL BUILDING 106 HOW MING STREET KWUN ,-1,,,,
67.0,HN,A AND T NICARAGUA S A,COYOTEPE 800 MTS AL NORTE MASAYA NICARAGUA MANAGUA NICARAGUA ,78,81.81818181818181,77.47747747747748,79.93091906135385,No
67.0,HN,A AND T NICARAGUA SA,COYOTEPE 800 MTS AL NORTE MASAYA 41000 ,78,75.0,62.7906976744186,69.69160768452983,No
,CN,A AND U GROUP,LIMITED BLOCK C 23 FLOOR ROCKY CENTRE NO 31HONG KONG HONG KONG ,-1,,,,
,PR,A AND W ELECTRICAL AND REFRIGERATIO,URB ALIANZA 140 MOROVIS PR 00687 ,-1,,,,
,IT,A ARCHIVET SAS DI DODI RICCARDO,VIA MONZORO 6 ,-1,,,,
,IN,A B C INDUSTRIES TIKARA NAKAHARA, ROAD ,-1,,,,
,IN,A B CARPET DURRIES,878 BURHENATH ROAD,-1,,,,
,PK,A B EXPORT PVT LTD, MADE UPS LASANI PULLI NEAR KHAYABAN GARDENS SARGODHA ROAD FAISALABAD PAKISTAN ,79,100.0,67.13286713286713,85.70994223168138,No
68.0,PK,A B EXPORT PVT LTD, MANUFACTURER & EXPORTER OF TEXTILE PULLI NEAR KHAYABAN GARDENS FAISAL ABAD PB 38000 PK ,79,100.0,87.67123287671232,94.6396664681358,No
68.0,PK,A B EXPORT PVT LTD, MANUFACTURER & EXPORTER OF TEXTILE PULLI NEAR KHAYABAN GARDENS SARGOD HA ROAD FAISALABAD PB 54000 PK ,79,100.0,87.67123287671232,94.6396664681358,No
,NL,A B F BEARINGS B V,3 NUCLEONWEG ROOSENDAAL NB 4706PZ NL ,-1,,,,
,CN,A B GLOBAL CO LTD, RM 1 8F NO 33 LN 41 SANCHONG NANGANG DIST TAIPEI CITY TAIWAN ,-1,,,,
,IN,A B IMPEX,38 KAMLA ENCLAVE CHITTOR ROAD BH ILWARA RAJASTHAN INDIA,-1,,,,
,ES,A B INTERIOR S L,CRTA N-340 KM 704 8 ,-1,,,,
,IL,A B MASTER CARGO LTD,4 OREN ST INDUSTRIAL AREA SHOHAM ISRAEL ,-1,,,,
69.0,TH,A BAG MS CO LTD, 647 MOO 7 MAE KU MAE SOT TAK APT 63110 THAILAND ,80,100.0,67.44186046511628,85.84428715874623,No
69.0,TH,A BAG MS CO LTD, 647 MOO 7 MAE KU SUB-DISTRICT MAE SOT DISTRICT TAK PROVINCE 63110 THAILAND ,80,100.0,67.44186046511628,85.84428715874623,No
,ES,A BAKERS S L,AVDA DE LA INDUSTRIA 7 BARCELONA BARCELONA CATALUNYA SPAIN TELEX : 08297 ,-1,,,,
,CN,A BATH HARDWARE CORP,4F NO 100 SHING DE ROAD SAN CHUNG DISTRICT NEW TAIPEI CITY 24158 TAIWAN ,-1,,,,
70.0,TW,A BELT LIN INDUSTRIAL & TRADE CO,NO 63 PING AN RD AN SI VILLAGE SIOUSHUEI TOWNSHIP CHANG HWA COUNTY 504 TW ,81,97.77777777777777,87.85046728971963,93.46155582644816,No
70.0,TW,A BELT LIN INDUSTRIAL TRADE CO,NO 63 PING AN RD AN SI VILLAGE CHANG HUA COUNTY 504 TAIWAN ,81,100.0,68.08510638297872,86.12395929694728,No
70.0,TW,A BELT LIN INDUSTRIAL TRADE CO LTD, NO 63 PING AN RD AN SI VILLA SIOUSHUEI TOWNSHIP CHANG HUA TW ,81,100.0,68.08510638297872,86.12395929694728,No
,IT,A BENEVENUTA E C SPA,FRAZIONE CROSI 4 10084 FORNO CANAVESE TO ,-1,,,,
71.0,DE,A BERGER POLSKA SP Z O O,UL PRZYJAZNI 47A ,82,100.0,92.3076923076923,96.65551839464884,No
71.0,DE,A BERGER POLSKA SP Z O O,PRZYJAZNI 47A ,82,100.0,92.3076923076923,96.65551839464884,No
,LK,A BLUEHILL GRANITES INDIA PVT LTD, 819/1 NEAR RAJIV GANDHI NAGAR NEELAMBUR TAMIL NADU ,-1,,,,
,IN,A BLUES CLOTHING, NO 3412C D NO 2280C GANDHI NAGAR VAVIPALAYAM P O TIRUPUR TAMIL NADU 641666 IN ,-1,,,,
72.0,CN,A BRIGHT ELECTRONICAL & HARDWARE HU,HENG-LING DEVELOPING DISTRICT SATI HUIZHOU 44 516269 CHINA ,83,100.0,80.48780487804879,91.51643690349948,No
72.0,CN,A BRIGHT ELECTRONICAL & HARDWARE HU,HENG LING DEVELOPING DISTRICT SATI HUIZHOU GD 516000 CHINA ,83,100.0,78.04878048780488,90.45599151643691,No
72.0,CN,A BRIGHT ELECTRONICAL & HARDWARE HU,HENG-LING DEVELOPING DISTRICT SATI AN TOWN HUI-YANG ,83,100.0,78.04878048780488,90.45599151643691,No
73.0,PT,A BRITO MOBILIARIO S A,RUA DA ZONA INDUSTRIAL 844 ,84,93.75,75.86206896551724,85.97263868065967,No
73.0,PT,A BRITO MOBILIARIO SA,844 RUA DA ZONA INDUSTRIAL LORDELO 4580-565 ,84,93.75,75.86206896551724,85.97263868065967,No
74.0,ES,A BUEN PASO,AVINGUDA DEL MARESME 495 9-2 ,85,64.0,100.0,79.65217391304348,No
74.0,ES,A BUEN PASO EDITORIAL S L,AVINGUDA DEL MARESME 495 9 2 ,85,64.0,100.0,79.65217391304348,No
,BR,A BUHLER S/A CURTUME,AVENIDA CAPIVARA 700 RS ,-1,,,,
,IN,A C BROTHERS,LAKRI FAZALPUR NH-24 MORADABA 244001 UTTAR PRADESH - INDIA PHONE: 591-2479450 FAX ,-1,,,,
,IT,A C M AS P A,1 VIA CRISTOFORO COLOMBO BOLOGNA BO BO 40131 IT ,-1,,,,
75.0,IT,A C S A,STEEL FORGINGS SPA VIA PER BILBIATE 43 OGGIONA 21040 IT ,86,100.0,68.49315068493152,86.30136986301372,No
75.0,DO,A C S A,TEEL FORGINGS S P A VIA PER SOLBIATE 43 ,86,100.0,93.33333333333333,97.10144927536231,No
75.0,IT,A C S A,STEEL FORGINGS SPA VIA PER SOLBIATE 43 ,86,100.0,93.33333333333333,97.10144927536231,No
,FR,A C S INTERNATIONAL GMBH,IM WESERTAL 5 ,-1,,,,
,MS,A C SRL, VIA ANTONINI 9 ,-1,,,,
,IN,A CAST FOUNDRY PLOT, NO : 9 HARIPAR INDUSTRIAL ARE HARIPAR PAL OPP MOTEL-THE-VILLAG GUJRAT IN GUJRAT IN ,-1,,,,
76.0,GY,A CAYUME HAKH & SONS RICE MILL,CANE GROVE RICE MILL S N CANE GROVE DEMERARA GUYANA ,87,70.0,80.0,74.34782608695653,No
76.0,GY,A CAYUME HAKH AND SONS,CANE GROVE RICE MILL EAST COAST DEMERARA GEORGETOWN GUYANA ,87,70.0,80.0,74.34782608695653,No
77.0,IT,A CELLI NONWOVENS S P A,VIA ROMANA OVEST 252 ,88,90.32258064516128,100.0,94.53015427769986,No
77.0,IT,A CELLI NONWOVENS SPA,VIA ROMANA OVEST 252 ,88,90.32258064516128,100.0,94.53015427769986,No
,CA,A CHARLES,6010 C S L ,-1,,,,
78.0,PT,A CIMENTEIRA DO LOURO S A, RUA PADRE DOMINGOS JOAQUIM PEREIRA VILA NOVA DE FAMALICAO 4760-563 PT ,89,100.0,91.58878504672897,96.34295002031695,No
78.0,PT,A CIMENTEIRA DO LOURO S A, RUA PADRE DOMINGOS JOAQUIM VILA NOVA DE FAMALICAO 4760-563 PT ,89,100.0,98.0,99.1304347826087,No
78.0,PT,A CIMENTEIRA DO LOURO S A, RUA PADRE DOMINGOS JOAQU VILA NOVA DE FAMALICAO 4760-563 PT ,89,100.0,98.0,99.1304347826087,No
,IN,A D INTERNATIONAL TULSI ESTATE,BLOCK NO A SHADE NO 4 & 5 NEAR ,-1,,,,
,IT,A D M HOME SRL, VIA DELLORZO 59-63 Z IND ,-1,,,,
,IT,A D R S P A,VIA A M CERIANI 96 UBOLDO 21040 IT ,-1,,,,
,IT,A D R SPA AZ DOLCIARIE RIUNITE,VIA G BADANO 44 ,-1,,,,
,FR,A DE FUSSIGNY SAS,11-17 RUE DES GARABIERS COGNAC 16100 FR ,-1,,,,
,CN,A DEC HANGZHOU DENTAL EQUIPMENT CO LTD, BUILDING 5 NO 528 SHUN FENG RD TANG QI TOWN LIN PING DISTRICT HANGZHOU ZHEJIANG 311106 CN ,-1,,,,
,IT,A E B INDUSTRIALE S R L, A VIA BRODOLINI 8 VALSAMOGGIA BOLO GNA EMILIA-ROMAGNA ITALY TELEX: 40053 ,-1,,,,
,IT,A E G FOLONARI TENUTE S A,R L VIA DI NOZZOLE 12 LOC PASSO DEI PECORAI ,-1,,,,
79.0,CN,A E GLOBAL TRADE CO LTD, UNIT 1103 11/F FULL WIN COMMERCIA L CENTRE UNIT C NO 573 NATHAN ROA D YAU MA TEI HONG KONG 99907 ,90,100.0,100.0,100.00000000000001,No
79.0,CN,A E GLOBAL TRADE CO LTD, UNIT 1103 11/F FULL WIN COMMERCIA L CENTRE UNIT C NO 573 NATHAN ROA D YAU MA TEI HONG KONG 999077 ,90,100.0,100.0,100.00000000000001,No
,DE,A E KELLER GMBH & CO,KG NIEDEREIMERFELD 10 59823 ARNSBERG ,58,95.65217391304348,82.6086956521739,89.98109640831758,No
,IT,A E M AGENZIE EUROPEE MARITTIME SR,VIA CECCARDI 19 GENOVA 16121 IT ,-1,,,,
,CN,A EAST,3F FENGJINHUI INDUSTRIAL PARK 11 LONGYAN ROAD HUMON DONGGUAN CITY GUANGDONG PROVINCE CHINA,-1,,,,
,KR,A ENERGY INTERNATIONAL CO LTD, SUITE 1604 KNN TOWER CENTUMSEO-RO 30 HAEUNDAE-GU BUSAN 48058 ,-1,,,,
,PK,A ESSAK AND SONS PLOT, NO D-3 S I T E SUPER HIGHWAY SCHEME 33 PHASE 1 KARACHI SINDH 75850 PK ,-1,,,,
,IN,A F INTERNATIONAL INC,OPP ROZE WALI ZARAT PEERZADA ROAD ,-1,,,,
,EG,A FAKHRY & CO,1801CORNICHE EL NIL - GARDEN CITY - CAIRO 11451 - EGYPT TEL + 20/2 2795-0685 FAX + 20/2 2795-4198 ,-1,,,,
80.0,VN,A FIRST VINA CO LTD, TAM PHUOC INDUSTRIAL ZONE BIEN HOA CITY DONG NAI PROVICE VIETNAM 084 ,91,100.0,97.2972972972973,98.82491186839013,No
80.0,VN,A FIRST VINA CO LTD, TAM PHUOC INDUSTRIAL ZONE DONG NAI 71000 VN ,91,100.0,72.94117647058825,88.23529411764706,No
80.0,VN,A FIRST VINA CO LTD, TAM PHUOC INDUSTRIAL ZONE BIEN HOA CITY DONG NAI PROVICE VIETNAM ,91,100.0,72.94117647058825,88.23529411764706,No
,MY,A FREE SPIRIT COMPANY SDN,BHD LOT 1203 JALAN PONGSU SERIBU MK 6 13200 KEPALA BATAS PENANG MALAYSIA ,-1,,,,
81.0,BE,A FRYLINK & ZONEN EXPORT BV,S GRAVENDAMSEWEG 71 2211 WH NOORDWIJKERHOUT THE NETHERLANDS ,92,100.0,77.27272727272727,90.11857707509881,No
81.0,NL,A FRYLINK & ZONEN EXPORT BV,71 S GRAVENDAMSEWEG NOORDWIJKERHOUT 2210 AB ,92,100.0,100.0,100.00000000000001,No
81.0,BE,A FRYLINK & ZONEN EXPORT BV,71 S GRAVENDAMSEWEG NOORDWIJKERHOUT 2210 AB ,92,100.0,100.0,100.00000000000001,No
,IN,A G APPARELS PLOT, NO 762 PHASE 5 UDYOG VIHAR GURUGRAM ,-1,,,,
,CN,A G C BUSINESS CONSULTING SHANGHAI LIMITED, OFFICE D FLOOR 16 YUJIA BUILDING NO 1336 HUASHAN ROAD SHANGHAI CHINA ,-1,,,,
,BD,A G DRESSES LIMITED, PLOT NO 9 BLOCK-C TONGI INDUSTRI AL AREA HIMARDIGHI TONGI-1710 GA ZIPUR BANGLADESH 1710 ,-1,,,,
,JP,A G E CORP, SANKYO BEKKAN 9F 7-10 1-CHOME IIDABASHI CHIYODA-KU TOKYO 102-0074 JAPAN ,-1,,,,
82.0,BR,A G E MANAGER CONSULTORIA,AV ITALIA 192 SALA 201 SAO PELEGRINO ,93,100.0,90.9090909090909,96.04743083003953,No
82.0,BR,A G E MANAGER CONSULTORIA,AV ITALIA 192 SALA 201 BAIRRO SAO PELEGRINO ,93,100.0,90.9090909090909,96.04743083003953,No
,IL,A G GILRO LTD,21 HAYETZIRA ST WEST INDUSTRIAL ZONE BEIT SHEMESH 99051 IL ,-1,,,,
83.0,IN,A G INDUSTRIES,B-55 SECTOR 83 ,-1,,,,
83.0,IN,A G INDUSTRIES,B55 SECTOR 83 NOIDA UTTAR PRADESH ,-1,,,,
,CA,A G O TRANSPORTATION INC,500 AV LEPINE DORVAL QC H9P 2V6 CANADA ,-1,,,,
84.0,IN,A G ORGANICA PRIVATE LIMITED, PLOT NO C-11 SECTOR-85 NOIDA UTTAR PRADESH 201305 ,94,100.0,65.3061224489796,84.91570541259982,No
84.0,IN,A G ORGANICA PRIVATE LIMITED, PLOT NO C-11 SECTOR-85 ,94,100.0,65.3061224489796,84.91570541259982,No
,IN,A G S SHIVA SHAKTHI MART, NO 28 DEENADAYALU STREET T NAGAR CHENNAI 600 017 ,-1,,,,
,DE,A G THORWARTH METALLWARENFABRIK GM,BLECHHAMMER 1 98574 SCHMALKALDEN ,-1,,,,
,PH,A GARCIA LIFESTYLE INC,773 SAN VICENTE STO TOMAS PAMPANGA 2020 PHILIPPINES TEL NO 6345 409-7186 ,-1,,,,
,CN,A GARMENT HK LIMITED, FLAT F 15/F BLOCK 2 WAH FUNG IND CE 33-39 KWAI FUNG CRESCENT ,-1,,,,
,CN,A GLORY INDUSTRIAL CO LTD, UNIT C 9/F WINNING HOUSE 72-76 WI NG LOK STREET SHEUNG WAN HONG KON G ,-1,,,,
85.0,IL,A GREBELSKY & SON,4 HAMELACHA STREET,95,76.47058823529412,100.0,86.70076726342711,No
85.0,IL,A GREBELSKY & SON,4 HAMELACHA ST HAR TUV A ,95,76.47058823529412,78.57142857142857,77.38399707709172,No
85.0,IL,A GREBELSKY & SON,4 HAMELACHA ST HAR TUV A IND ZONE BET SHEMESH 99065 IL ,95,100.0,64.15094339622642,84.41345365053323,No
85.0,IL,A GREBELSKY & SON CRAFTING,4 HAMELACHA STREET,95,76.47058823529412,78.57142857142857,77.38399707709172,No
,DM,A GRINGS S A,RUA DAS PEDREIRAS #238 ,-1,,,,
86.0,CN,A H A INTERNATIONAL CO LTD, JINAN MANSION 306 TUN XI ROAD HEFEICN ,96,100.0,88.52459016393442,95.01069137562367,No
86.0,CN,A H A INTERNATIONAL CO LTD, JINAN MANSION 306 TUNXI RD HEFEI ANHUI ,96,100.0,88.52459016393442,95.01069137562367,No
87.0,IN,A H EXPORT PLOT, NO 12 JUGIANA NEAR BARNALA INTERNATIONAL G T ROAD LUDHIANA-141017 GSTIN 03AABHH2695M1Z4 ,97,100.0,75.0,89.1304347826087,No
87.0,IN,A H EXPORT PLOT, NO 12 JUGIANA NEAR BARNALA INTERNATIONAL G T ROAD LUDHIANA-1 ,97,100.0,88.09523809523809,94.824016563147,No
87.0,SG,A H EXPORT PLOT, NO 12 JUGIANA NEAR BARNALA INTERNATIONAL GT ROAD ,97,100.0,88.09523809523809,94.824016563147,No
,DE,A H MEYER MASCHINENFABRIK GMBH,AM BAHNHOF 54 27239 TWISTRINGEN GERMANY ,-1,,,,
,PK,A H TEXTILE,15/5 SECTOR 12-C NORTH KARACHI INDUSTRIAL AREA KARACHI PAKISTAN ,98,77.77777777777779,63.793103448275865,71.69748459103782,No
,BE,A HARTRODT DENMARK A/S,GRONLANDSVEJ 5 8660 SKANDERBORG DENMARK ,-1,,,,
88.0,DE,A HARTRODT DEUTSCHLAND GMBH&CO KG,2 AS AGENT FOR: AGCO INTERNATIONAL GMBH VICTOR-VON-BRUNS STRASSE 17 ,99,100.0,94.01709401709401,97.39873652917132,No
88.0,DE,A HARTRODT DEUTSCHLAND GMBH&CO KG,20097 HAMBURG AS AGENT FOR: AGCO INTERNATIONAL GMBH VICTOR VON BRUNS STRASSE 17 ,99,100.0,91.93548387096774,96.4936886395512,No
88.0,DE,A HARTRODT DEUTSCHLAND GMBH&CO KG,20097 HAMBURG AS AGENT FOR: AGCO INTERNATIONAL GMBH VICTOR-VON-BRUNS STRASSE 17 ,99,100.0,91.93548387096774,96.4936886395512,No
,GR,A HARTRODT GREECE SA,CHARILAOU TRIKOUPI 6 185 36 PIRAEUS GREECE ,-1,,,,
,ES,A HARTRODT ITALIANA S U R L,VIA GUALCO 68F 16165 GENOVA ITALY ,-1,,,,
,MX,A HARTRODT MEXICO S A DE C V, AV INSURGENTES SUR NO 800- 9 COL BENITO JUAREZ CMX 03100 MEXICO ,100,88.88888888888889,68.37606837606837,79.97027127461911,No
,MX,A HARTRODT MEXICO SA DE CV, AV INSURGENTES SUR 800 P 9 COL DEL LLE BENITO JUAREZ 03100 CIUDAD DE MICO RFC AHM0810275D8 CTC MARIA PINE ,100,88.88888888888889,68.37606837606837,79.97027127461911,No
,NL,A HARTRODT NEDERLAND B V,RIETDEKKERSTRAAT 8 RIDDERKERK ZH 2980 BM NETHERLANDS ,-1,,,,
,PT,A HARTRODT PORTUGAL UNIPESSOAL LDA,RUA DA BOTICA 252 2 D MOREIRA DA MAIA PORTUGAL ,-1,,,,
,JP,A HARTRODT TURKEY LOJISTIK LTD,STI OSMANAGA MAH DEREGAZINOSU SOK NO 17 D:8 34714 KADIKOY ISTANBUL 3 18 TURKEY ,-1,,,,
,GR,A HATZOPOULOS SA,ARKADIOU 19 ST ,-1,,,,
,TW,A HENG ENTERPROSE CO LTD, NO 42 ZHONGXING 1ST ST LUZHU SHIA TAOYUAN COUNTY 338 TAOYUAN TAIWAN ,-1,,,,
,DE,A HITSCHER & SOHN GMBH,INDUSTRIES 36-40 ,-1,,,,
89.0,CA,A HQ LOGISTICS INC, 160-2268 NO 5 RICHMOND BC V6X2T1 C A ,101,100.0,92.5925925925926,96.77938808373592,No
89.0,CA,A HQ LOGISTICS INC, 160-2268 NO 5 ROAD RICHMOND BC V6X 2T1 CA ,101,100.0,89.65517241379311,95.50224887556223,No
89.0,CA,A HQ LOGISTICS INC, 160-2268 NO 5 ROAD RICHMOND BC V6V 1N6 CA ,101,100.0,86.20689655172413,94.00299850074963,No
89.0,CA,A HQ LOGISTICS INC, 160-2268 NO 5 ROAD RICHMOND BC V6X2T1 CA ,101,100.0,86.20689655172413,94.00299850074963,No
,VN,A HWA TRADE CO LTD, #1602 102DONG 175 GILJUNAM-RO BU PYEONG-GU INCHEON KOREA ,-1,,,,
,TH,A I 2012 CO LTD, 81/4-5 MOO 2 RAMA 2 RD BANGNUMJEAD ,-1,,,,
,SG,A I LEATHER 18/D TOPSIA, ROAD KOLKATA 700039 WESTBENGAL INDIA ,-1,,,,
,DE,A I M ALL IN METAL GMBH,AM LEUCHTENBAU 5 ,-1,,,,
,AN,A I M ALL IN METALL GMBH,STEINBEISSTR 6 MARKGROENINGEN 71706 DE ,-1,,,,
,DE,A I M ALLES IM METALL GMBH,STEINBEISSTRASSE 6 ,-1,,,,
,TW,A I M Y CO LTD, NO 395 SEC 1 LINSEN RD 6F -10 EAST DIST 71051 TW ,-1,,,,
,ES,A I O TRADE CO UK LTD,26 TENBY ROAD MOSELEY BIRMINGHAM ,-1,,,,
90.0,VN,A I S VIETNAM CO LTD, NO 9 ROAD 11 BAC NINH 16000 VN ,-1,,,,
90.0,VN,A I S VIETNAM CO LTD, NO 9 ROAD 11 TU SON 16000 VN ,-1,,,,
,DE,A I T METALLBEARBEITUNG,LANGE STRASSE 24 72275 ALPIRSBACH ,-1,,,,
,TH,A J & R HOLDINGS CO LTD, 788 MOO 2 AMPHUR MUENG 10280 TH ,-1,,,,
,JM,A J BARNED & SONS LTD,AS AGENTS FOR EMANUEK PETRUT-TRANDAFIR 78-80 BARBICAN ROAD TH 26 KINGSTON 6 JAMAICA W I ,-1,,,,
,JM,A J BARNED & SONSLTD AS AGENT FOR EASISPICE MANUFACTURERS LTD,1 GREAT GEORGE STREET SAVANNA LA MAR WESTMORELAND JAMAICA ,-1,,,,
,CA,A J CARIB SHIPPING,93 QUANTRELL TRAIL ,-1,,,,
,PT,A J COSTA IRMAOS LDA,ESTRADA DAS LIGEIRAS LOTE 10 CACEM 11 2735-337 PORTUGAL ,-1,,,,
,ES,A J MAURITZEN & CO LTD, 90 QUEEN STREET PORT OF SPAIN TRINIDAD FOR DEISE MONTEIRO BARROS ,-1,,,,
,TH,A J PLAST PUBLIC CO LTD, 95 THAKARM ROAD SAMAEDAM BANGKHUNTIEN BANGKOK 10150 THAILAND TEL : +662 415-0035 FAX ,-1,,,,
91.0,VN,A J VIETNAM CO LTD,CENTURY DISTRIBUTION SYSTEMS ON BEHALF OF A J VIETNAM CO LTD LOT NO 47-10 N16 STREET PHUOC DONG IND PARK PHUOC DONG COMMUNE GO DAU,62,100.0,100.0,100.00000000000001,No
91.0,VN,A J VIETNAM CO LTD, LOT NO 47-10 N16 STREET PHUOC DON PHUOC DONG COMMUNE GO DAU DISTRICT ,62,93.33333333333333,74.28571428571429,85.05175983436854,No
91.0,VN,A J VIETNAM CO LTD,CENTURY DISTRIBUTION SYSTEMS INC ON BEHALF OF A J VIETNAM CO LTD LOT NO 47-10 N16 STREET PHUOC DONG IND PARK PHUOC DONG COMMUNE GO DAU,62,100.0,68.96551724137932,86.50674662668666,No
92.0,TW,A JATE STEEL CO LTD, 5F 2 395 SEC 1 LIN SEN RD TAINAN TW ,-1,,,,
92.0,TW,A JATE STEEL CO LTD, 5F -2 NO 395 SEC 1 LIN-SEN RD EAST DIST ,-1,,,,
93.0,CN,A JAX INTERNATIONAL CO LTD, NO 68 55TH LANE DAFU ROAD BEITUN D TAICHUNG TAICHUNG 40679 TAIWAN ,102,100.0,77.27272727272727,90.11857707509881,No
93.0,CN,A JAX INTERNATIONAL CO LTD, NO 68 55TH LANE DAFU ROAD BEITUN DISTRICT 40679 TAICHUNG TW ,102,100.0,77.27272727272727,90.11857707509881,No
,CN,A JAY TRADERM2003,20/F SOUTH TOWER PLAZA #437 DONGFENG ZHONG RD YUEXIU DIST GUANGZHOU,-1,,,,
,TW,A JOHN ENTERPRISE CO LTD, FL 5 NO 8 SEC 1 CHUNG HSING RD WUGU DIST ,-1,,,,
,DO,A K AGROINDUSTRIAL SRL, 3038 NW NORTH RIVER DRIVE ,-1,,,,
,IN,A K GARMENTS, NO 2/343 1 SRC NAGAR GANAPATHIPALAYAM PO ,-1,,,,
,IN,A K HANDICRAFT,A-132 NEW SEELAMPUR ,-1,,,,
94.0,BD,A K M KNIT WEAR LTD,14 GEDDA KARNAPARA ULAIL SAVAR DHAKA-1340 BANGLADESH ,103,100.0,73.23943661971832,88.36497244335581,No
94.0,BD,A K M KNITWEAR LTD,14 GEDDA KARNAPARA ULAIL SAVAR DHAKA DHAKA BANGLADESH ,103,100.0,72.22222222222221,87.92270531400968,No
94.0,LK,A K M KNITWEAR LTD,14 GEDDA KARNAPARA ULAIL SAVAR ,103,100.0,72.22222222222221,87.92270531400968,No
,IN,A K R EXPORT,34-O A RAMASAMY STREET GANDHI NAGAR ERODE - 638009 INDIA,-1,,,,
,SE,A K S SNICKERI AB,HALLSTORP 21 OXABACK 511 95 SE ,-1,,,,
95.0,CN,A K STAMPING SHANGHAI COMPANY INC, 789 PUXING ROAD MINHANG SHANGHAI CHINA 201114 ,104,100.0,84.44444444444444,93.23671497584543,No
95.0,CN,A K STAMPING SHANGHAI COMPANY INC, 789 PUXING ROAD SHANGHAI CHINA 201114 ,104,100.0,84.44444444444444,93.23671497584543,No
,DE,A KAYSER AUTOMOTIVE SYSTEMS GMBH,HULLERSER LANDSTR 43 EINBECK 37574 DE ,-1,,,,
96.0,TW,A KRAFT TOOLS MANUFACTURING CO LT, D NO 21-1 LANE 557 JHONG JHENG RD 1 F WUFENG DIST 41359 TW ,105,95.83333333333334,67.64705882352942,83.57843137254903,No
96.0,TW,A KRAFT TOOLS MANUFACTURING CO LTD, NO 21 1 LANE 557 ZHONGZHENG RD WUFENG DIST ,105,95.83333333333334,67.64705882352942,83.57843137254903,No
,JP,A KUARTET GIDA PAZARLAMA IC VE DIS,MANSUROGLU MAH ANKARA CAD NO:81/4 BAYRAKLI 35 35000 TURKIYE ,-1,,,,
,IT,A L B A SRL, 87/R VIA BORZOLI GENOVA GE GE 16153 IT ,-1,,,,
,IT,A L B SPA,LOCALITA MONTE DI DEU ,-1,,,,
,IN,A L COLDFORGE PVT LTD, E 23 FOCAL POINT PHASE IV LUDHIANA 141010 PUNJAB INDIA ,-1,,,,
97.0,GP,A L F UNO S P A,VIA SAN PIO X 17 FRANCENIGO DI GAIARINE 31018 TREVISO TV ITALY ,106,66.66666666666667,87.5,75.72463768115944,No
97.0,FR,A L F UNO S P A,VIA SAN PIO X 17 ,-1,,,,
97.0,FR,A L F UNO SPA,VIA S PIO X 17 31010 FRANCENIGO DI GAIARINE TV ITALY ,106,100.0,100.0,100.00000000000001,No
,FR,A L F UNO SPA,ITALY 31010 FRANCENIGO DI GAIARINE TV VIA S PIO X 17 ,106,100.0,100.0,100.00000000000001,No
,CN,A L GLOBAL TRADE CO LTD,UNIT 2505 25F THE SUNS GROUP CENTRENO 200 GLOUCESTER ROAD WANCHAI HONG KONG 999077 ,63,95.65217391304348,70.9090909090909,84.89431173741194,No
,IT,A L I DI LIVINIO CORRADI,AEREOMARE LOGISTICA INTERNAZIONALE VIA ASMARA 3/C CARGO VILLAGE 56121 - PISA ,-1,,,,
,IN,A L PAPER HOUSE LLP NEAR TEMPO STAND SHIKARPURA, ROAD SHANGANER ,-1,,,,
,IN,A L PAPER HOUSE LLP SANGANER NEAR TEMPO STAND SHIKARPURA, ROAD 302029 JAIPUR IN ,-1,,,,
,DE,A LANDERER GMBH & CO,KG HEINZ-LANDERER-STRASSE 1 ,-1,,,,
,CO,A LAUMAYER & CA EXPORTADORES DE CAF E S A,C ARRERA 64D 103FF 24 B ELLO C O ,107,82.14285714285714,60.71428571428572,72.82608695652175,No
98.0,CO,A LAUMAYER & CIA EXPORTADORES,DE CAFE SA NIT 890 900 115-1 CARRERA 64D NUMERO 103FF-24 PHONE:2671647 FAX:4380973 ,108,86.79245283018868,67.3913043478261,78.35717088133539,No
98.0,CO,A LAUMAYER CIA EXPORTADORES DE,CAFE SA NIT 890 900 115 1 CARRERA 64D NUMERO 103FF-24 PHONE:2671647 FAX:4380973 ,108,92.5925925925926,64.44444444444444,80.35426731078907,No
98.0,CO,A LAUMAYER Y CIA EXPORTADORES DECAFE S A,S NIT - 890 900 115-1CRA64D NO 103FF-24 TEL 2671647FAX 4380973 MEDELLIN - COLOMBIA ,108,80.70175438596492,60.24096385542168,71.80575850312005,No
,CO,A LAUMAYER Y COMPANIA EXPORTADORES,CARRERA 64D 103 FF 24 MEDELLIN ANT 050023 COLOMBIA ,108,80.70175438596492,60.24096385542168,71.80575850312005,No
99.0,CN,A LIFE ARTS & CRAFTS, RM 803 CHEVALIER HOUSE 45-51 CHATHAM RD SOUTH ,109,100.0,76.66666666666666,89.85507246376812,No
99.0,CN,A LIFE ARTS & CRAFTS CO LTD, RM 803 CHEVALIER HOUSE 45-51 HONG KONG 999077 HK ,109,100.0,76.66666666666666,89.85507246376812,No
,CA,A LINE GREETING CARDS,30 SINCLAIR BLVD ,-1,,,,
,CN,A LITE INDUSTRIAL CO LTD, NO 13 BOAI ROAD HENGJIANG DANZAO TOWN NANHAI DISTRICT FOSHAN CITY GUANGDONG CHINA POST CODE 528216 ,-1,,,,
,IT,A M A SPA,VIA PUCCINI 28 ,24,75.0,64.28571428571428,70.3416149068323,No
,BR,A M C TEXTIL LTDA, RODOVIA ANTONIO HEIL KM 5 ITAIPAVA CNPJ 75 364 570 000755 ,-1,,,,
100.0,NL,A M CARGO BARCELONA SL,A206 TERMINAL CARGA AEROPUERTO EL PRAT DE LLOBREGAT 08820 ,110,100.0,100.0,100.00000000000001,No
100.0,IT,A M CARGO BARCELONA SL,A206 TERMINAL CARGA AEROPUERTO EL PRAT DE LLOBREGAT 08820 ,110,100.0,100.0,100.00000000000001,No
100.0,GB,A M CARGO BARCELONA SL,A206 TERMINAL CARGA AEROPUERTO EL PRAT DE LLOBREGAT 08820 ,110,100.0,100.0,100.00000000000001,No
,PT,A M DE ALMEIDA E SILVA & FILHO LD,RUA DONA MATILDE 14 ,-1,,,,
,IT,A M GEARS SRL, VIA TUBERTINI 10 40054 BUDRIO BO ,-1,,,,
,IN,A M GLASS INTERNATIONAL OPP RASNA TALKIES BARI KA NAGLA BY PASS, ROAD ,-1,,,,
,IL,A M HAEMEK SNACKS LTD,1 HASHAMISH STREET MIGDAL HAEMEK 2310002 IL ,-1,,,,
,IL,A M HATIFAY HAEMEK LTD,SAGI 2000 INDUSTRIAL PARK MIGDAL HAEMEK 3658400 IL ,-1,,,,
,PT,A M J GALOS LDA,RUA RAINHA SANTA ISABEL N 300 GALEGOS SANTA MARIA SANTA MARIA PA ,-1,,,,
,SA,A M J GENERAL TRADE LLC,OFFICE NO 01 1ST FLOOR SHOP NO 36 FRUITS AND VEGETABLE MARKET AL AWEER DUBAI U A E P O BOX 6010 T +971 4 547 6899/+971 54 350 500 ,-1,,,,
101.0,PK,A M MERCHANDISING PVT LTD, PLOT NO:H-160 Z-60 & Z-61 SITE PHASE II SUPER HIGHWAY MALIR GADAP ,111,100.0,86.95652173913044,94.32892249527411,No
101.0,PK,A M MERCHANDISING PVT LTD, PLOT NO H 160 Z 60 AND Z 61 SITE PHASE II SUPER HIGHWAY MALIR ,111,100.0,86.95652173913044,94.32892249527411,No
102.0,PK,A MAJEED AND SONS D,264 K D A SCHEME NO 1 KARACHI PAKISTAN KARACHI PKPK,112,76.92307692307692,100.0,86.95652173913044,No
102.0,PK,A MAJEED AND SONS D,264 K D A SCHEME NO 1 KARACHI PAKISTAN KARACHI PK PK,112,76.92307692307692,100.0,86.95652173913044,No
102.0,PK,A MAJEED ANDSONS D,264 K D A SCHEME NO 1 KARACHI PAKISTAN KARACHI PKPK,112,69.23076923076923,100.0,82.60869565217392,No
102.0,PK,A MAJEEDAND SONS D,264 K D A SCHEME NO 1 KARACHI PAKISTAN KARACHI PK PK,112,76.92307692307692,100.0,86.95652173913044,No
,DE,A MANNESMANN MASCHINENFABRIK GMBH BLIEDINGHAUSER, STR 27 ,-1,,,,
103.0,CN,A MAX INC,NO 52 LANE 480 SEC 2 FENG SHIH RD FENG YUAN CITY TAIWAN 420 ,113,100.0,86.74698795180723,94.23782084861185,No
103.0,CN,A MAX INC,NO 52 LANE 480 SEC 2 FENG SHIH ROAD FENG YUAN CITY TAIWAN 420 ,113,100.0,86.74698795180723,94.23782084861185,No
103.0,CN,A MAX INC, NO 52 LANE 480 SEC 2 FENG SHIH ROAD FENG YUAN YUAN 33548 TW ,113,100.0,86.74698795180723,94.23782084861185,No
103.0,CN,A MAX INC, NO 52 LANE 480 SEC 2 TWTXG 99999 TW ,-1,,,,
,IL,A MESHI COSMETIC INDUSTRIES, SHIMON HBURSKAI 8 BAT YAM 57504 IL ,-1,,,,
,CN,A MODE LIMITED, ROOM 2005 20 F LAURELS INDUSTRIAL CENTRE 32 TAI YAU STREET SAN PO KONGKOWLOON HONG KONG ,-1,,,,
104.0,AU,A N COOKE MANUFACTURING CO PTY LTD, 53 SHEEHAN ROAD HEIDELBERG WEST VIC 3081 AU ,114,68.75,95.38461538461537,80.33026755852842,No
104.0,AU,A N COOKE MFG CO PTY LTD, 53 SHEEHAN RD HEIDELBERG WEST 3081 AU ,114,100.0,100.0,100.00000000000001,No
104.0,EH,A N COOKE MFG CO PTY LTD, 53 SHEEHAN RD HEIDELBERG WEST 3081 AU ,114,100.0,100.0,100.00000000000001,No
,IN,A N G EXPORT,70 73 SEC-29 PART-II HUDA PANIPAT-132104 ,-1,,,,
105.0,HK,A N INTERNATIONAL SHOP, NO 85F SARASWATI VIHAR ,115,100.0,100.0,100.00000000000001,No
105.0,na,A N INTERNATIONAL SHOP, NO 85F SARASWATI VIHAR ,115,100.0,100.0,100.00000000000001,No
,PK,A N LEATHER GLOVES TRADE DOBURJI MALLIAN DASKA, ROAD SIALKOT PB 51310 PAKISTAN ,-1,,,,
,IN,A N S 127/C VARDHAMAN CHAMBER KALYAN, STREET MASJID EAST ,116,98.0392156862745,100.0,98.89173060528559,No
,IN,A N S 127/C VARDHAMAN CHAMBER KALYAN,DHL ISC O/B A N S 127/C VARDHAMAN CHAMBER KALYAN STREET MASJID EAST MUMBAI - 400 009 INDIA --,-1,,,,
,HK,A N S 127/C VARDHMAN CHAMBER KALYAN, STREET MASJID EAST ,116,98.0392156862745,100.0,98.89173060528559,No
106.0,PK,A N SOURCING ANGORA TEXTILE MILLS 15KM SHAHPUR MULTAN, ROAD LAHORE LAHORE PK ,117,100.0,76.92307692307692,89.96655518394648,No
106.0,PK,A N SOURCING ANGORA TEXTILE MILLS 15KM SHAHPUR MULTAN, ROAD LAHORE PK ,117,100.0,76.92307692307692,89.96655518394648,No
,PK,A N T GLOVES INTERNATIONAL BUTT, ROAD SHAHAB PURA SIALKOT-PAKISTAN ,-1,,,,
,TW,A O K INDUSTRIAL CORP, TAIPEI WORLD TRADE CENTER 4F-16 NO 5 SEC 5 SHIN-I ROAD TAIPEI TAIWAN ,-1,,,,
,TW,A O KINGDOM INTERNATIONAL CO LTD, NO 101 SHENNONG RD CHANGZHI TOWNSHIP PINGTUNG COUNTY TAIWAN TEL:+886-7-5538466 ; FAX:+886-7-5229016 ,-1,,,,
,CN,A O SMITH CHINA ENVIRONMENTAL P,66 LIXING ROAD LISHUI ECONOMIC DEV,-1,,,,
,CN,A ONE CHINA CO LTD, RM 19C LOCKHART CTR 301-307 LOCKHART RD WAN CHAI HONG KONG HKG ,-1,,,,
,CN,A ONE GROUP,HOLDINGS LTD 12/F HENLEY BUILDING SUITE NO 76 26 5 QUEEN S ROAD CENTRAL CENTRAL ,-1,,,,
,PK,A ONE TEXTILE & TOWEL INDUSTRIES B,43 ESTATE AVENUE S I T E KARACHI PAKISTAN,-1,,,,
,CN,A ONE TOYS CO LTD, ROOM 407 4/F LIPPO SUN PLAZA 28 C ANTON ROAD TSIM SHA TSUI KOWLOON HONGKONG ,-1,,,,
107.0,CN,A ONE TRADERS CO LTD, ROOM A215 BUILDING A NO 66 HUANGBI AN SOUTH RD GUANGDONG CHINA ,118,100.0,83.9506172839506,93.02200751476114,No
107.0,CN,A ONE TRADERS CO LTD, ROOM A215 BUILDING A NO 66HUANGBIAN SOUTH RD HELONG ST BAIYUN DISTRICT GUANGZHOU CHINA ,118,100.0,62.13592233009708,83.53735753482482,No
107.0,CN,A ONE TRADERS CO LTD, ROOM A215 BUILDING A NO 68 HUANGBIASHANGHAI CHINA ,118,100.0,77.77777777777779,90.33816425120773,No
107.0,CN,A ONE TRADERS CO LTD, ROOM A215 BUILDING A NO 66HUANGBIA N SOUTH RD HELONG STBAIYUN DISTRICTGUANGZHOU CHINA ,118,100.0,62.745098039215684,83.80221653878944,No
107.0,CN,A ONE TRADERS CO LTD, ROOM A215 BUILDING A NO 66 HUANGBIAN SOUTH RD ,118,100.0,62.745098039215684,83.80221653878944,No
,IT,A P A C SRL, VIA DELL ARTIGIANATO 54 36045 LONIGO 34 IT ,-1,,,,
,TH,A P FROZEN FOODS CO LTD, 21/49 50 THAI WAH TOWER 17TH FLOOR SOUTH SATHORN ROAD THUNGMAHAMEK SATHORN BANGKOK ,-1,,,,
,IL,A P I CHURI DISTRIBUTION LTD,2 HAPRAT YAVNE M 81227 ISRAEL ,-1,,,,
,IT,A P I S R L, VIA CAMILLO HAYECH 6 ,-1,,,,
,GU,A P SHIPPING CORP,1900 INWOOD DRIVE FORT WAYNE IN 46815 ,-1,,,,
,TH,A P V INTERTRADE CO LTD, 1111/59 BANKRANGMUANG LADPRAO RD CHANKASEM CHATUCHAK BANGKOK 10900 THAILAND 10900 ,74,66.66666666666667,58.015267175572525,62.905188627060525,No
,HK,A PARTNER LIMITED, UNIT 1205 MILLENNIUM CITY 3 370 KWUN TONG ROAD KWUN TONG HONG KONG ,-1,,,,
,CN,A PEACH CHINA, RM C211-C215 BLDG 2 NO 18 JINOU EAST RD CHEN BIAN CUN NANCUN PANYU GUANG ZHOU CHINA ,119,100.0,86.79245283018868,94.25758818703856,No
,CN,A PEACH CHINA, RM C211-C215 BLDG 2 NO 18 JINOU EAST RD CHEN BIAN CUN NANCUN ,119,100.0,86.79245283018868,94.25758818703856,No
,DE,A PETERSEN COLLECTION & CRAFT APS,KLOEVERMARKSVEJ 70 AMAGER ,-1,,,,
108.0,TH,A PLA HIGHTECH CO LTD, 216/41 M 6 BUNG SRIRACHA CHONBURI 20230 THAILAND TEL NO 0-3834-00 75-8 TAX ID 02055470123 20230 ,120,100.0,77.41935483870968,90.18232819074335,No
108.0,TH,A PLA HIGHTECH CO LTD, 216/41 M 6 BUNG SRIRACHA CHONBURI CHONBURI 20230 TH ,120,100.0,90.0,95.65217391304348,No
108.0,TH,A PLA HIGHTECH CO LTD, 216/41 M 6 BUNG SRIRACHA CHONBURI 20230 THAILAND CHONBURI 20230 TH ,120,100.0,90.0,95.65217391304348,No
,GB,A PLACE IN THE GARDEN LTD,AVERYS BOLNEY ROAD COWFOLD ,-1,,,,
109.0,KH,A PLUS A SHOES CAMBODIA CO LTD, PHUM TRAPIANG POR SANGKAT CHOAMCH AO KHAN POSENCHEY PHNOM PENH CAM BODIA 855 ,121,100.0,61.702127659574465,83.34875115633673,No
109.0,KH,A PLUS A SHOES CAMBODIA CO LTD, PHUM TRAPIANG POR SANGKAT CHOAM CH KHAN PORSENCHEY PHNOM PENH KINGDOM ,121,100.0,65.1685393258427,84.85588666340988,No
109.0,KH,A PLUS A SHOES CAMBODIA CO LTD, PHUM TRAPIANG POR KHAN POSENCHEY KH ,121,100.0,65.1685393258427,84.85588666340988,No
,IT,A PLUS AUTOMATION SRL, VIA SELVA 23 25 FORLI 47122 IT ,-1,,,,
,CN,A PLUS BOTTLE CO LTD, 81 ZHENNAN ROAD YINZHOU DISTRICT NINGBO CN ,-1,,,,
,NO,A PLUS CO LTD, WARD 2 BINH THACH HAMLET BINH HOA COMMUNE VINH CUU DIST ,-1,,,,
110.0,SG,A PLUS INDUSTRIES LTD,PLOT NO-28 SECTION-7 MIRPUR DHAKA-1216 BANGLADESH ,122,100.0,68.42105263157895,86.27002288329521,No
110.0,BD,A PLUS INDUSTRIES LTD, PLOT NO 28 SECTION NO 07 MIRPUR DHAKA 1216 BD ,122,100.0,68.42105263157895,86.27002288329521,No
111.0,IN,A PLUS OVERSEAS PLOT, NO 361 AND 362 SECTOR 29 PART-2 HUDA PANIPAT-132103 HARYANA INDIA ,123,100.0,94.25287356321839,97.50124937531234,No
111.0,IN,A PLUS OVERSEAS PLOT, NO 361 AND 362 SECTOR 29 PART-2 HUDA PANIPAT-132103 HARYANA ,123,100.0,94.25287356321839,97.50124937531234,No
112.0,VN,A PLUS SCREWS INC,NO 3 ALLEY 85 HSINSHENG LANE JHONG JHENG ROAD SINJHUANG DIST NEW TAIPEI CITY TAIWAN ,124,100.0,79.64601769911505,91.15044247787611,No
112.0,VN,A PLUS SCREWS INC,NO 3 ALLEY 85 HSINSHENG LANE JHONGJHENG RD SINJHUANG DIST ,124,100.0,79.64601769911505,91.15044247787611,No
,TW,A POWER INST INC,1F NO 56 SEC 2 ZHONGSHAN RD WURI DIST ,-1,,,,
,KR,A PRO CO LTD, A-PRO TECHNOPIA B D 60 LS-RO 115BE ON-GIL GUNPO-SI GYEONGGI-DO KOREA 15809LEE HYE RAN HRLEE APROELE ,-1,,,,
,TW,A PRO TECH CO LTD, NO 16 YOW 9TH ROAD TAICHUNG COUNTY TACHIA TOWN 43769 TW ,-1,,,,
,TW,A PRODUCT LTD,FLAT B 6/F TEDA BUILDING 87 WING LOK STREET SHEUNG WAN HONG KONG ,-1,,,,
,DE,A R ARMATUREN GMBH,ALTENHAGENER STRASSE 4A 32107 BAD SALZUFLEN GERMANY ,-1,,,,
,PK,A R ENTERPRISES, PLOT NO D-227/B S I T E KARACHI PAKISTAN ,-1,,,,
,IN,A R INTERNATIONAL,EWS-5 POKHARPUR JAJMAU ,-1,,,,
,IN,A R INTERNATIONAL V,1814 STREET NO 5 VIJAY PARK MOUJPUR DELHI 110053 INDIA DELHI 110053 IN,-1,,,,
,CN,A R MEDICOM INC SHANGHAI CO LTD, 290-302 XIANGCHE ROAD SONGJIANG DISTRICT ,-1,,,,
,SG,A R R DISMATICS LTD,3 NOP MADRASABAZAR ROAD MATUAIL JATRA BARI DHAKA BD ,-1,,,,
,IN,A R STANCHEM PVT LTD, 4 CHOWRINGHEE LANE DIAMOND CHAMBER BLOCK 2 6TH FLOOR KOLKATA 700 016 INDIA PH: +91 33 4016 666 ,-1,,,,
,CN,A RAYMOND AUTOMOTIVE FASTENERS ZHE DING MAO DEVELOPING ZONEJING QI, ROAD159# ,-1,,,,
,TR,A RAYMOND BAGLANTI ELEMANLARI,TAYSAD OSB 1 CD 14 SK NO:9 GEBZE 41400 KOCAELI TR ,125,94.33962264150944,64.86486486486487,81.52451056470747,No
113.0,TR,A RAYMOND BAGLANTI ELEMANLARI SAN,TOSB ORG SAN BOL 1 CAD 14 SOKAK NO:9 ,-1,,,,
113.0,TR,A RAYMOND BAGLANTI ELEMANLARI SAN,TOSB OSB 1 CADDE 14 SOKAK NO:9 CAYIKOCAELI 41 TURKIYE ,125,94.33962264150944,64.86486486486487,81.52451056470747,No
115.0,BR,A RAYMOND BRASIL LTDA, AVENIDA COMENDADOR JOAO LUCAS 555 CNPJ: 01 144 384/0001-89 ,126,100.0,62.33766233766234,83.62507058159233,No
115.0,DO,A RAYMOND BRASIL LTDA, AV COMENDADOR JOAO LUCAS 555 DIST ,126,100.0,62.33766233766234,83.62507058159233,No
116.0,BE,A RAYMOND GMBH & CO,KG TEICHSTR 57 ,127,95.65217391304348,63.1578947368421,81.52422644512986,No
117.0,DE,A RAYMOND GMBH & CO,KG HEGENHEIMER STR 22 WEIL AM RHEIN 79576 DE ,128,95.65217391304348,98.41269841269842,96.85240195637172,No
116.0,DE,A RAYMOND GMBH & CO,KG TEICHSTR 57 LOERRACH 79539 DE ,127,95.65217391304348,91.66666666666666,93.91934467548835,No
117.0,DE,A RAYMOND GMBH CO,KG HEGENHEIMER STRA E 22 WEIL AM RHEIN DE ,128,95.65217391304348,98.41269841269842,96.85240195637172,No
116.0,DE,A RAYMOND GMBH CO,KG TEICHSTRASSE 57 79539 LORRACH ,127,100.0,93.87755102040816,97.33806566104704,No
116.0,DE,A RAYMOND GMBH CO,KG TEICHSTRASSE 57 LOERRACH DE ,127,100.0,93.87755102040816,97.33806566104704,No
,JP,A RAYMOND JAPAN CO LTD, 86-8 SOYA HADANO-SHI KANAGAWA 259-1146 JP ,-1,,,,
,ES,A RAYMOND TECNIACERO S A,U CTRA DE MANRESA A BERGA KM 0 5 SANT FRUITOS DE BAGES ,-1,,,,
118.0,CN,A RIGHTEOUS HERO MAOQIAO LONGSHUN KNITTING 4TH,FLOOR ,129,100.0,100.0,100.00000000000001,No
118.0,CN,A RIGHTEOUS HERO MAOQIAO LONGSHUN KNITTING 4TH,FLOOR R ,129,100.0,100.0,100.00000000000001,No
,ZA,A RO USA U C O AFRICAN WILDLIFE,POB 80057 NAMIBIA 9000 SO ,-1,,,,
119.0,IN,A S INTERNATIONAL,112/1 U B BENAJHABAR ,-1,,,,
119.0,IN,A S INTERNATIONAL,112 1-B BENAJHABAR ADJACENT TO KUSHI MEDICAL STORE KANPUR 208002 IN ,-1,,,,
,DE,A S S AUTOMATED SEWING SYSTEMS,AM BEETACKER 3 ,-1,,,,
,IN,A S TRADERS,132 KOTLA DWARA SARAI TAREEN SAMBHAL ,-1,,,,
,PK,A S TRADERS ARIFSHAHEED, ROAD WAZIRBAD DISTT GUJRANWALA PAKISTAN TEL: 021-111-111-550 ,-1,,,,
,CN,A S V INTERNATIONAL LTD,1506 CBD CENTRAL PLAZA 365 MIDDLE CHANGJIANG RD HEFEI ANHUI CHINA TEL:0086 551 65226016 ,-1,,,,
120.0,TH,A S WORLD TRADE CO LTD, 209/16 MOO 2 PHRAEKSA MAI MUEANG SAMUTPRAKARN SAMUTPRAKARN 10280 THAILAND ,130,100.0,88.37209302325581,94.9443882709808,No
120.0,TH,A S WORLD TRADE CO LTD, 209-16 MOO 2 PHRAEKSA MAI MUEANG SAMUTPRAKARN SAMUTPRAKARN 10280 THAILAND SAMUTPRAKARN 10280 TH ,130,100.0,88.37209302325581,94.9443882709808,No
,GB,A SAFE UK LTD,HABERGHAM WORKS AINLEYS INDUSTRIAL ESTATE ELLAND HX5 9JP GB ,-1,,,,
,KR,A SAN TIMBER CO LTD, 18 SAENGNIM-DAERO 669BEON-GIL SAEN GNIM-MYEON GIMHAE-SI GYEONGSANGNAM DO KOREA ,-1,,,,
121.0,DE,A SCHUETH GMBH,VOGELBERGSTR 22 SCHOTTEN VOGELSB ERG HESSEN GERMANY TELEX: 63679 ,131,100.0,100.0,100.00000000000001,No
121.0,DE,A SCHUETH GMBH,VOGELBERGSTR 22 SCHOTTEN VOGELSB ERG HESSEN GERMANY TELEX: ,131,100.0,100.0,100.00000000000001,No
,MX,A SCHULMAN DE MEXICO S A DE C V, AVENIDA C F E 730 ZONA INDUSTRIAL MEXICO CITY 0000 MX ,-1,,,,
122.0,TW,A SHA FOODS ENTERPRISE CO LTD, NO 15 HUANGONG RD YONGKANG DIST TAINAN CITY 710 TAIWAN R O C ,132,100.0,91.56626506024097,96.3331587218439,No
122.0,TW,A SHA FOODS ENTERPRISE CO LTD, NO 15 HUANGONG RD YONGKANG DIST TAINAN TAIWAN 71041 ,132,100.0,91.56626506024097,96.3331587218439,No
,CN,A SLANTING FLOWER,LIU SHA ZHEN ZHAO CUO LIAO YUE JIN MEN PUNING CITY JIEYANG CITY GUANG DONG ,-1,,,,
,CN,A SMART LIMITED, ROOM A2 11/F JUMBO INDUSTRIAL BLD 189 WAI YIP STREET KWUN TONG HONG KONG ,-1,,,,
,CN,A SMART LTD,189 WAI YIP STREET KWUN TONG ,-1,,,,
,DE,A SPINDELBERGER FAHRZEUGTECHNIK GM,BH PAUL-HEIDELBACH-STR 11 EDERMUENDE 34295 DE ,133,81.08108108108108,61.81818181818181,72.70590748851619,No
,BE,A SPINDELBERGER FAHRZEUGTECHNIK GM PAUL HEIDELBACH, STR 11 34295 EDERMUENDE GERMANY ,133,81.08108108108108,61.81818181818181,72.70590748851619,No
123.0,TW,A STAINLESS INTERNATIONAL CO LTD, 5F NO 147 SEC 2 JIANGUO N RD ,134,100.0,66.66666666666667,85.50724637681161,No
123.0,TW,A STAINLESS INTERNATIONAL CO LTD, 5F NO 147 SEC 2 JIANGUO N RD ZHONGSHAN DIST TAIPEI CITY 10477 TAIWAN R O C ,134,100.0,81.3953488372093,91.91102123356927,No
123.0,TW,A STAINLESS INTERNATIONAL CO LTD, 5F NO 147 SEC 2 JIANGUO N RD ZHONGSHAN DIST ,134,100.0,65.71428571428571,85.09316770186336,No
123.0,TW,A STAINLESS INTERNATIONAL CO LTD, 5F NO 147 SEC 2 JIANGUO N RD ZHONGSHAN DIST TAIPEI ,134,100.0,76.31578947368422,89.70251716247141,No
123.0,TW,A STAINLESS INTERNATIONAL CO LTD, 5 F NO 147 SEC 2 JIANGUO N R D ZHONGSHAN DIST ,134,100.0,80.0,91.30434782608697,No
123.0,TW,A STAINLESS INTERNATIONAL CO LTD, 5 F NO 147 SEC 2 JIANGUO N RD ZHONGSHAN DIST TAIPEI CITY 104476 TAIWAN R O C TAPERA ,134,100.0,73.33333333333334,88.40579710144928,No
123.0,TW,A STAINLESS INTERNATIONAL CO LTD, 5F NO 147 SEC 2 JIANGUO N RD ZHONGSHAN DIST TAIPEI CITY ,134,100.0,77.5,90.21739130434783,No
123.0,TW,A STAINLESS INTERNATIONAL CO LTD, 5F NO 147 SEC 2 JIANGUO N RD TAIPEI CITY 104 TAIWAN R O C ,134,100.0,77.5,90.21739130434783,No
124.0,VN,A STRIKER ENTERPRISE CO LTD, 25F-2 NO 97 SEC 1 XINTAI 5TH R D NEW TAIPEI CITY 221 TW ,135,100.0,64.61538461538461,84.61538461538463,No
124.0,VN,A STRIKER ENTERPRISE CO LTD, 25F-2 NO 97 SEC 1 XINTAI 5TH RD XIZHI DIST NEW TAIPEI CITY 22175 TAIWAN ,135,70.0,62.22222222222222,66.61835748792271,No
124.0,VN,A STRIKER ENTERPRISE CO LTD, 25F-2 NO 97 SEC 1 XINTAI 5TH R D XIZHI DIST ,135,100.0,72.72727272727273,88.14229249011859,No
,KR,A SUNG CLEAN FLOW TECH CO LTD, 4F ASUNG BLDG 544 GYEONGIN-RO GURO-GU ,-1,,,,
,CN,A SWIFT AND SWIFT RUNNER,21 HEBIN WEST ROAD QILING COMMUNITY Y SHILING TOWN,136,100.0,83.5820895522388,92.8617780661908,No
,CN,A SWIFT AND SWIFT RUNNER,21 HEBIN WEST ROAD QILING COMMUNITY,136,100.0,83.5820895522388,92.8617780661908,No
,TH,A T E Q THAILAND CO LTD, 903-47 RAMA 3 RD SOI 49 BANGPON BANGKOK10120 TH ,-1,,,,
,IT,A T EUROPE SPA,VIA SOLFERINO 27 CP 7/8 46043 CASTIGLIONE DELLE STIVIERE MN ,64,75.0,76.31578947368422,75.5720823798627,No
,IN,A T EXPORT AGRA BODLA BICHPURI, ROAD KALWARI POST OFFICE SHAHGANJ AGRA UTTAR PRADESH 282010 UP IN ,-1,,,,
,IT,A T G SRIL,VIA DEI FALEGNAMI 2/A ,-1,,,,
,CN,A T P INDUSTRIES, RM 703 KOWLOON BLDG 555 NATHAN ROAD KOWLOON HK ,-1,,,,
,IT,A T P S P A,VIA AUSTRIA 12 ,-1,,,,
,IT,A T S ELETTRONICA SRL, LOCALITA ARCELLA ZONA INDUSTRIALE ,-1,,,,
,SA,A T S HEAVY EQUIPMENT,C O AEROSPACE TECHNICAL SERVICE DUBAI - AE ,-1,,,,
,IN,A TO Z INDUSTRIES DELHI, ROAD LAKRI FAZALPUR MORADABAD UP 244001 IN ,-1,,,,
,CN,A TON ACOUSTIC CO LTD, 6F-1 NO 660 BADE RD SEC 4 ,-1,,,,
,KR,A TOP CO LTD, 19-3 DALWOL-GIL SIHEUNG-SI GYEONGGI-DO 15006 KOREA TEL NO 0082 31-3 183390 ,137,100.0,69.81132075471699,86.87448728465957,No
,KR,A TOP CO LTD, DALWOL-GIL 19-3 WOLGOT-DONG SIHEUNG-SI GYEONGGI-DO 429-832 KOREA BUSAN KOREA KR ,137,100.0,69.81132075471699,86.87448728465957,No
125.0,CN,A TORCHMOULD LIMITED, NO 5 CHANGLE ROAD 2ND SANGYUAN INDUDONGGUAN 44 523119 CHINA ,138,100.0,67.36842105263158,85.81235697940504,No
125.0,CN,A TORCHMOULD LIMITED, NO 5 CHANGLE ROAD 2ND SANGYUAN IND USTRIAL PARK DONGCHENG STREET DONG GUAN CITY CHINA 523119 ,138,100.0,67.36842105263158,85.81235697940504,No
,IN,A TOSH ISHIMITSU BEVERAGES INDIA GODOWN, NO 1 DOOR NUMBER 2/627-4 ATOSH CAMPUS SOKKANUR RD VADAPUDHUR ,139,88.0,77.92207792207793,83.61829474872954,No
,IN,A TOSH ISHIMITSU BEVERAGES INDIA PR GODOWN NO1 DOOR, NO 2/627-4 ATOSH CAMPUS SOKKANUR RD VAD ,139,88.0,77.92207792207793,83.61829474872954,No
,CA,A TROTMAN,21 MT OLIVE DR ,-1,,,,
126.0,PK,A U TEXTILE PLOT, NO 372 SHAH BAIG GOBAL TOWN FEDERAL B AREA ,98,100.0,65.97938144329896,85.20842671447781,No
126.0,PK,A U TEXTILE PLOT, NO 372 SHAH BAIG GOBOL TOWN FEDERAL B AREA KARACHI KARACHI PAKISTAN KARACHI PK ,98,100.0,65.97938144329896,85.20842671447781,No
,IL,A UNIVERS TRANSIT LTD,15 HADARIM ST ASHDOD 77140 ISRAEL ,140,96.55172413793103,70.0,85.00749625187407,No
,IL,A UNIVERSE TRANSIT,HAHADARIM STREET 2 INDUSTRIAL ZONE ASHDOD ISRAEL ,140,96.55172413793103,70.0,85.00749625187407,No
,TR,A V O D KURUTULMUS GIDA VE TARIM,URUNLERI SAN TIC A S YILDIRIM MAH 35 SK NO:62/1 MENEMEN-IZMIR / TURKEY ,141,100.0,68.04123711340206,86.10488570147918,No
,PT,A V O D KURUTULMUS GIDA VE TARIM U,YILDIRIM MAH 35 SOKAK NO:62 MENEME IZMIR 35 35060 TURKIYE ,141,100.0,68.04123711340206,86.10488570147918,No
,SG,A V THOMAS LEATHER & ALLIED PRODUC, NO 16/1 CHAKRAPANI ROAD GUINDY ,-1,,,,
127.0,IN,A V THOMAS LEATHER & ALLIED PRODUC PVT LTD, NO 12 RACE COURSE ROAD GUINDY TAMIL NADU ,142,94.54545454545455,78.26086956521739,87.46520020622101,No
127.0,IN,A V THOMAS LEATHER & ALLIED PRODUC PVT LTD, 12 RACE COURSE ROAD GUINDY ,142,94.54545454545455,68.96551724137932,83.4237426741175,No
127.0,IN,A V THOMAS LEATHER & ALLIED PRODUCT PVT LTD, 12 RACE COURSE ROAD GUINDY ,142,92.85714285714286,68.96551724137932,82.46947954594133,No
127.0,IN,A V THOMAS LEATHER & ALLIED PRODUCT S, NO 12 RACE COURSE ROAD GUINDY CHENNAI -600032 TAMILNADU ,142,98.11320754716981,100.0,98.93355209187861,No
128.0,IN,A V THOMAS LEATHER & ALLIED PRODUCTS PVT LTD, NO III BLOCK 1 4 SPE ECONOMIC ZONE MEPZ TAMBARAM ,143,74.57627118644068,66.66666666666667,71.13731269958242,No
128.0,SG,A V THOMAS LEATHER & ALLIED SD PHASE III,BLOCK 1-4 SEZ MEPZ TAMBARAM ,143,93.10344827586206,81.63265306122449,88.11614600862833,No
128.0,IN,A V THOMAS LEATHER & ALLIED SDF PHASE,BLOCK 1-14 SEZ MEPZ TAMBARAM CHENANI ,143,93.10344827586206,81.63265306122449,88.11614600862833,No
127.0,IN,A V THOMAS LEATHER ALLIED PRODUCT S, NO 12 RACE COURSE ROAD GUINDY CHENNAI -600032 TAMILNADU ,142,98.11320754716981,100.0,98.93355209187861,No
,VN,A V W VIETNAM LTD,ROUP 3 - CHAU THANH - BEN TRE VIE ,-1,,,,
,NL,A VAN DE GROEP & ZONEN BV,HARINGWEG 27 SPAKENBURG 3751 NETHERLANDS ,-1,,,,
,IN,A W FABER CASTELL INDIA PVT LTD, 8TH FLOOR 801 KAMALA EXECUTIVE PA RK M V ROAD J B NAGAR ,-1,,,,
,BR,A W FABER CASTELL S A,R CEL JOSE A DE OLIV SALLES 1876 1876 SAO CARLOS - SP 13570-820 BR ,-1,,,,
,DE,A W FABER CASTELL VERTRIEB GMBH,NUERNBERGER STRASSE 2 STEIN 90547 DE ,-1,,,,
129.0,YU,A WINES SPAIN&PORTUGAL S L,CALLE BUESO PINEDA 23 MADRID 28043 ES ,144,100.0,100.0,100.00000000000001,No
129.0,ES,A WINES SPAIN&PORTUGAL S L,CALLE BUESO PINEDA 23 MADRID 28043 ES ,144,100.0,100.0,100.00000000000001,No
,DK,A WINTHER A/S,RYGESMINDEVEJ 2 ,-1,,,,
,CN,A XIAN NA INDUSTRIAL SHANGHAI CO LTD, ROOM 112C 101 BAOLIN EIGHT VILLAGE BAOSHAN DISTRICT SHANGHAI ,-1,,,,
,PA,A Y S EXPORTADORES SA,UJARRAS 100 MTS ESTE DE AGRO UJARRAS CARTAGO COSTA RICA COS ,-1,,,,
130.0,GT,A Y Z TIERRA BUENA,1 2 KM NORTE DEL EBAIS DE CHACHAGUACALLE BARRANTES SAN RAMON CR ,145,91.66666666666666,62.857142857142854,79.1407867494824,No
130.0,DO,A Y Z TIERRA BUENA SA,1KM NORTE DEL EBAIS DE CHACHAGUA Y 500 ESTE CHACHAGUA PENAS BLANCAS ALAJUELA COSTA RICA COS ,145,100.0,100.0,100.00000000000001,No
130.0,CR,A Y Z TIERRA BUENA SA,1KM NORTE DEL EBAIS DE CHACHAGUA Y 500 ESTE CHACHAGUA PENAS BLANCAS ,145,100.0,84.61538461538461,93.31103678929766,No
130.0,PA,A Y Z TIERRA BUENA SA,1KM NORTE DEL EBAIS DE CHACHAGUA Y 500 ESTE CHACHAGUA PENAS BLANCAS ALAJUELA COSTA RICA COS ,145,100.0,84.61538461538461,93.31103678929766,No
,CN,A YES IMPORT CO LTD, ROOM 702 7TH FLOOR BEAUTIFUL GROU P TOWER NO 77 CONNAUGHT ROAD CENTR AL HONG KONG 999077 ,-1,,,,
131.0,SG,A Z APPARELS,295/JA/4/A RAYER BAZAR ,146,100.0,100.0,100.00000000000001,No
131.0,LK,A Z APPARELS,295/JA/4/A RAYER BAZAR ,146,100.0,100.0,100.00000000000001,No
,DE,A Z FORMEN UND MASCHINENBAU GMBH,BAHNHOFSTR 6 RUNDING 93486 DE ,-1,,,,
,TW,A&A LIEN ENTERPRISE CO LTD, 12F NO 82 SEC 2 WEN-HUA ROAD PAN-CHIAO ,-1,,,,
,MA,A&A MANAGEMENT DUBAI SILICON OASIS DDP,BUILDING A2 +971 056 7577 431 INFOAAFZCO COM ,-1,,,,
,DO,A&C DOMINICANA S R L, CALLE JUAN JOSE DUARTE #73 SANTO DOMINGO DOMINICAN REPUBLIC ,-1,,,,
,KR,A&D CO LTD,A&D KOREA LIMITED SEOUL KOREA ON BEHALF OF A&D COMPANY LIMITED TOKYO JAPAN,-1,,,,
,CN,A&D FASTENERS MANUFACTWING LTD,NANBIANTOU INDUSTRIAL PARK NO 1 TIANYANG ERLU SONGGANG DISTRICT BAO AN SHENZHEN CN ,-1,,,,
132.0,VN,A&D VIETNAM LIMITED, NO 28 STR 5 VSIP BN INTEGRATED TOWNSHIP AND IP PHU CHAN ,147,100.0,62.16216216216216,83.54876615746181,No
132.0,VN,A&D VIETNAM LIMITED, NO 28 STREET 5 VSIP BAC NINH IT AND IP PHU CHAN COMMUNE ,147,100.0,78.26086956521739,90.54820415879017,No
132.0,VN,A&D VIETNAM LIMITED, NO 28 STREET 5 VSIP BN IT AND IP PHU CHAN COMMUNE ,147,100.0,81.25,91.84782608695653,No
132.0,VN,A&D VIETNAM LIMITED, NO 28 STREET 5 VSIP BAC NINH IT AND IP PHU CHAN ,147,100.0,87.09677419354838,94.38990182328192,No
132.0,VN,A&D VIETNAM LIMITED, NO 28 STREET 5 VSIP BACNINH IT AND IP PHU CHAN ,147,100.0,87.09677419354838,94.38990182328192,No
,PL,A&E CLOTHING POLSKA SP Z O O,POGODNA 36 20-377 LUBLIN TIN: 9462693309 ,-1,,,,
,CN,A&E HENGMEI SPINNING CO LTD, NO 69 WEST XINHUA ROAD HENGSHUI H EBEI CN ,-1,,,,
,IT,A&G 23 SRL, VIALE G DA VERRAZZANO 7 MARINA DI CARRARA 54033 IT ,-1,,,,
133.0,CN,A&G TRADE AND SERVICE CO LTD, ROOM 603E 6F HANG PONT COMMERCIAL BUILDING 31 TONKIN STREET CHEUNG SHA WAN KOWLOON HK ,148,100.0,95.65217391304348,98.10964083175806,No
133.0,CN,A&G TRADE AND SERVICE CO LTD, ROOM 603E 6F HANG PONT COMMERCIAL BUILDING 31 TONKIN STREET CHEUNG S HA WAN KOWLOON HONGKONG HK ,148,100.0,95.65217391304348,98.10964083175806,No
134.0,CN,A&H DESIGN GROUP LTD, SUITE 608 TOWER ONE HARBOUR CENTR 1HOK CHEUNG STREET HUNGHOM KOWLOO HONGKONG CN ,149,100.0,82.35294117647058,92.32736572890026,No
134.0,CN,A&H DESIGN GROUP LTD, SUITE 608 TOWER ONE HARBOUR CENTRE 1 HOK CHEUNG STREET KOWLOON HONG KONG HONGKONG 999077 CN ,149,100.0,87.64044943820225,94.62628236443578,No
134.0,CN,A&H DESIGN GROUP LTD, SUITE 608 TOWER 1 HARBOUR CENTRE 1 HOK CHEUNG STREET HUNG HOM ,149,100.0,92.47311827956989,96.72744273024779,No
134.0,CN,A&H DESIGN GROUP LTD, SUITE 608 TOWER 1 HARBOUR CENTRE 1 HOK CHEUNG STREET KOWLOON HK ,149,100.0,83.72093023255813,92.92214357937311,No
134.0,CN,A&H DESIGN GROUP LTD, SUITE 608 TOWER ONE HARBOUR CENTR 1 HOK CHEUNG STREET HUNG HOM KLN HONG KONG ,149,100.0,83.72093023255813,92.92214357937311,No
,CN,A&H GLOBAL LIMITED, UNIT 3-5 17/F THE LONG BEACH COMMERCIAL PODIUM NO 8 HOI FAI RD ,-1,,,,
,CN,A&H INTERNATIONAL COSMETICS, NO 1298 JU TING RD FENGXIAN SHANGHAI CN ,-1,,,,
,CN,A&H INTERNATIONAL COSMETICS CO LTD, NO 338 ZHUANGWU ROAD ZHUANGHANG TOWN FENGXIAN DISTRICT ,-1,,,,
,CN,A&H QINGDAO LTD DONGGUAN BRANCH, ROOM 105 BUILDING 7 NO 8 NORTH-SOUTH AVENUE WEIYUAN HUMEN ,76,91.30434782608697,74.22680412371135,83.8793288250541,No
,VN,A&J VIETNAM CO LTD, LOT NO47-10 N16STREET PHUOCDONG IP PHUOC DONG COMMUNE GO DAU DIST ,62,93.33333333333333,74.28571428571429,85.05175983436854,No
,DE,A&K AUTOTEILE GMBH,INDUSTRIESTRASSE 1 WEILBURG 35781 WEI DE ,-1,,,,
,KR,A&K FAMILY CO LTD, 262 42 SINCHON 4-RO DONGNAM-GU CH EONAN-SI CHUNGCHEONGNAM-DO KOREA R OK 31176 TEL 82-41-577- ,-1,,,,
,CN,A&K GLOBAL CO LTD, UNIT A & B 10/F CITIC TOWER NO 1 TIM MAE ROAD C ONG KONG HK ,-1,,,,
135.0,VN,A&M,LOT P15 N1 ST NAM TAN UYEN EXTENDED INDUSTRIAL PARK UYEN HUNG ,150,100.0,68.0,86.08695652173914,No
135.0,VN,A&M,P15 N1 ST NAM TAN UYEN EXTENDED IP UYEN HUNG WARD TAN UYEN CITY ,150,100.0,68.0,86.08695652173914,No
,BE,A&M MACHINERY BV,INDUSTRIESTRAAT 23 ,-1,,,,
,CN,A&M POLYMER TECHNICS CO LTD, NO EAST OF TAIGU ROAD LILI TOWN SUZHOU JS CHINA ,-1,,,,
,KR,A&P CREBIZ CO LTD, 563 NEUNGHEODAE-RO NAMDONG-GU INCHON KOREA ,-1,,,,
,NI,A&T NICARAGUA S A,COYOTEPE 800 MTS AL NORTE CARRET MASAYA TIPITAPA MASAYA NICARAGUA NIC ,78,75.0,62.7906976744186,69.69160768452983,No
136.0,CN,A&U GROUP,LIMITED BLOCK C 23/F LOCKHART ROAD 315-321 LOCKHART ROAD WAN CHAI HONG KONG ,65,100.0,87.37864077669903,94.51245251160829,No
136.0,CN,A&U GROUP,LIMITED BLOCK C 23/F LOCKHART ROAD 315-3 21 LOCKHART ROAD WAN CHAI HONG KO NG ,65,100.0,87.37864077669903,94.51245251160829,No
,PK,A&Y FOOD INDUSTRIES PVT LTD, PLOT # 1 SECTOR A/3 KARACHI EXPORT PROCESSING ZONE LANDHI KARACHI 75150 PAKISTAN ,-1,,,,
,DE,A/S P K JEPPESEN OG SOEN,KORNBUEN 2 ,-1,,,,
,IT,A1 ARREDAMENTI S R L, VIA GIOVANNI SANTI 18 / 12 ,-1,,,,
,CA,A1 ECONOMIC TIRES INC,2965 ISLINGTON AVENUE APT 16 ,-1,,,,
,CA,A1 ECONOMIC TIRES INC,10575 BOUL SAINTE GERTRUDE ,-1,,,,
,CA,A1 GLOBAL CONTAINER SHIPPING INC,2727 STEELES AVE WEST SUITE 100 TORONTO ON CANADA POSTAL CODE: M3J 3G9 PHONE: 416-400-40-72 ++ ,-1,,,,
137.0,PH,A1 GLOBAL LOGISTICS,8414 DR ARCADIO SANTOS AVENUE SUCAT PARANAQUE 1700 PHILIPPINES EMAIL FAYEA1GLOBAL-LOGISTICS COM ,151,100.0,77.51937984496125,90.2258173238962,No
138.0,PH,A1 GLOBAL LOGISTICS,AS AGENT OF VILLALTA SALAMANCA KRIZTOFER BLK LOT 14-15 VIRGO ST FELIZANA SUBD IMUS CAVITE PHILIPINES PHONE 6328758423 ,152,100.0,78.2051282051282,90.52396878483836,No
137.0,PH,A1 GLOBAL LOGISTICS,8414 DR ARCADIO SANTOS AVENUE SUCAT PARANAQUE 1700 PHILIPPINES ,151,100.0,77.51937984496125,90.2258173238962,No
138.0,PH,A1 GLOBAL LOGISTICS,AS AGENT OF STEPHEN LESNIAK BLK LOT 14-15 VIRGO ST FELIZANA SUBD IMUS CAVITE PHILIPINES PHONE 6328758423 ,152,100.0,78.2051282051282,90.52396878483836,No
,KR,A1 GOLF,251 SEOKSEONG-RO GIHEUNG-GU YONGIN-SI GYEONGGI-DO KR ,-1,,,,
,MX,A1 S A DE C V, -2498 EMAIL DARINKA VENTASMULTISENAL COM MX NUBES NO 252 COL JARDINES DEL PEDREGAL ALCALDIA ,-1,,,,
,IN,A1 TEXT PVT LTD, OFF NO 21 COMMERCIAL BLDG NO 2 32/1CHAKALA CTS NO 211 & 212 A K ROAD ,-1,,,,
,DE,A123 SYSTEMS S R O,NA ROVINCE 918 ,-1,,,,
,IN,A1PRIME NUTRITIONS PVT LTD, 114 1ST FLR TARAMANDAL COMPLEX 5-9-13 SAIFABAD ,-1,,,,
139.0,EE,A2 DISAIN OU,PLASTI MAO KULA PAIDE VALD 75751 JARVAMAA ESTONIA ,153,100.0,94.28571428571428,97.51552795031056,No
139.0,EE,A2 DISAIN OU,PLASTI MAO KULA PAIDE 75751 JARVAMAA ESTONIA ,153,100.0,94.28571428571428,97.51552795031056,No
,TW,A2A MANUFACTURING CO LTD, 53 YONG-AN STREET ,-1,,,,
,DE,A2S EINRICHTUNGSSYSTEME GMBH,ADAM STEGNER STRASSE 19 96342 STOCKHEIM GERMANY ,-1,,,,
,IN,A2Z FILTRATION SPECIALITIES PRIVATE,PLOT NUMBER 175-176 PHASE I SECTOR 3 INDUSTRIAL ESTATE GROWTH CENRE DISTRICT REWARI ,-1,,,,
,IN,A2Z FILTRATION SPECIALITIES PVT LTD, 175 PHASE-I BAWAL 123501 IN ,-1,,,,
,IN,A2Z FILTRATION SPECIALITIES PVT LTD, D-1 INFOCITY PHASE-II SEC-33 GURUGRAM - 122001 HARYANA INDIA ,66,75.0,69.44444444444444,72.58454106280195,No
,PH,A2Z LOGISTICS INC,LOT 3281 E PHASE 6A LAGUNA TECHNO PARK SPECIAL ZONE BINAN LAGUNA PH ,-1,,,,
140.0,ES,A3 LOGISTICS1994 S L,EDIFICIO AVANT CALLE SELVA 12 2A 08820 EL PRAT DE LLOBREGAT BARCELONA -SPAIN ,154,93.75,88.69565217391305,91.55245746691872,No
140.0,ES,A3 LOGISTICS1994 SL,EDIFICIO AVANT CALLE SELVA 12 2 PLANTA EL PRAT DE LLOBREGAT BARCELONA ,154,93.75,88.69565217391305,91.55245746691872,No
,BR,A5 EXPORT SPA,RUT: 76 860 657-9 AMERICO VESPUCIO NORTE 2700 OFICINA701 VITACURA SANTIAGO CHILE ,155,88.0,73.03370786516854,81.49291646311677,No
,BR,A5 EXPORT SPA AV AMERICO VESPUCIO,#2700 DEPTO 701VITACURA RM CHILE,-1,,,,
,BR,A5 EXPORT SPA CERRO EL PLOMO,5420 SANTIAGO RM 755000 CHILE,-1,,,,
141.0,CL,A5 EXPORT SPA RUT,76 860 657-9 AMERICO VESPUCIO NORTE 2700 OFICINA701 VITACURA SANTIAGO CHILE ATTN : PABLO SERRANO PINCETIC EMAIL: PABLOS@A5EXPORT CL ,155,78.57142857142857,100.0,87.88819875776397,No
141.0,CL,A5 EXPORT SPARUT,76 860 657-9 AMERICO VESPUCIO NORTE 2700 OFICINA701 VITACURA SANTIAGO CHILE ATTN : PABLO SERRANO PINCETIC EMAIL: PABLOS@A5EXPORT CL ,155,78.57142857142857,100.0,87.88819875776397,No
,RO,A51 SNC,VIA DELLA SCAFA 19 FIUMICINO 00054 IT ,-1,,,,
,TR,A7 DI TCARET A,ORGANZE SANAY BLGES 1 KISIM 1 CADDE NO17 DOSEMEALTI ,156,66.66666666666667,83.11688311688312,73.81893468849992,No
,TR,A7 DIS TIC A S,ORGANIZE SAN BOLGESI 1 CAD NO:17 DOSEMEALTI ,156,66.66666666666667,83.11688311688312,73.81893468849992,No
,CN,AA 1218 CO LTD, FLAT 7B PROSPECT MANSION 66-72 PA TERSON STREET CAUSEWAY BAY ,-1,,,,
,CR,AA ALLIANZ MOVING CR S A,SAN DIEGO TRES RIOS CARTAGO COSTA RICA CEDULA JURIDICA 3-101-703582 506-4010-1015 ,-1,,,,
,ZA,AA BADENHORST WINES,1 EVERGREEN LANE,-1,,,,
142.0,AU,AA COMPANY PTY LTD, LEVEL 1 GASWORKS PLAZA 76 SKYRING TERRACE NEWSTEAD QLD 4006 ,157,100.0,89.8876404494382,95.60332193453836,No
142.0,AU,AA COMPANY PTY LTD, LEVEL 1 TOWER A GASWORKS PLAZA 76 SKYRING TERRACE NEWSTEAD QLD 4006 ,157,100.0,95.74468085106383,98.14986123959298,No
142.0,AU,AA COMPANY PTY LTD, LEVEL 1 TOWER A GASWORKS PLAZA 76 SKYRING TERRACE NEWSTEAD QLD ,157,100.0,95.74468085106383,98.14986123959298,No
143.0,JP,AA JAPAN PVT LTD, 1-28-21 2F HAYABUCHI TSUZUKI-KU YOKOHAMA KANAGAWA 224-0025 JAPAN JP YOKOHAMA 224-0025 ,158,100.0,69.0909090909091,86.56126482213439,No
143.0,JP,AA JAPAN PVT LTD, 1 28 21 HAYABUCHI TSUZUKI KU ,158,100.0,60.31746031746032,82.74672187715667,No
143.0,JP,AA JAPAN PVT LTD, 1-28-21 2F HAYABUCHI TSUZUKI-KU YOKOHAMA KANAGAWA 224-0025 JAPAN JP YOKOHAMA224-0025 ,158,100.0,67.27272727272727,85.7707509881423,No
143.0,JP,AA JAPAN PVT LTD, 1-28-21 HAYABUCHI TSUZUKI-KU YOKOHAMA-SHI 14 224-002 ,158,100.0,67.27272727272727,85.7707509881423,No
,IN,AA LABELS PRIVATE LIMITED, I 64 KASNA INDUSTRIAL AREA SITE V GREATER NOIDA U P ,-1,,,,
,CN,AA MILLS,1150 EVEREE INN ROAD GRIFFIN GA UNITED STATES,-1,,,,
,IT,AA SRL, VIA GIOVANNI DA PROCIDA 3 PAGANO ,-1,,,,
144.0,VN,AA TAY NINH CORP,GROUP 1 BUNG BINH HAMLET HUNG TH TAY NINH VIETNAM ,159,100.0,62.06896551724138,83.50824587706148,No
144.0,VN,AA TAY NINH CORP,GROUP 1 BUNG BINH HAMLET HUNG TH TAY NINH TAY NINH VIETNAM ,159,100.0,63.41463414634146,84.09331919406151,No
144.0,VN,AA TAY NINH CORP,GROUP 1 BUNG BINH HAMLET HUNG TH TRANG BANG 37 VIET NAM ,159,100.0,68.33333333333333,86.23188405797102,No
145.0,VN,AA TAY NINH CORP,OOCL LOGISTICS VIETNAM CO LTD O/B AA TAY NINH CORPORATION GROUP 1 BUNG BINH HAMLET HUNG THUA N COMMUNE TAY NINH 73000 VN,159,100.0,64.59627329192547,84.60707534431542,No
145.0,VN,AA TAY NINH CORP,OOCL LOGISTICS VIETNAM CO LTD O/B AA TAY NINH CORPORATION GROUP 1 BUNG BINH HAMLET HUNG THUA N COMMUNE TAY NINH 84000 VN,159,100.0,64.59627329192547,84.60707534431542,No
145.0,VN,AA TAY NINH CORP,OOCL LOGISTICS VIETNAM CO LTD O/B AA TAY NINH CORPORATION GROUP 1 BUNG BINH HAMLET HUNG THU AN COMMUNE TAY NINH 84000 VN,159,100.0,64.19753086419753,84.43370907139023,No
,VN,AA TAY NINH CORP,ADD GROUP 1 BUNG BINH HAMLET HUNG THUAN COMMUNE TRANG BANG DISTRICT TAY NINH PROVINCE VIET NAM ,159,100.0,64.19753086419753,84.43370907139023,No
146.0,CN,AAA LINE INTERNATIONAL CHINA CORP,ROOM 15B NO 985 DONGFANG ROADPUDONGNEW DISTRICT SHANGHAI CN ,160,100.0,87.5,94.56521739130436,No
146.0,CN,AAA LINE INTERNATIONAL CHINA CORP,ROOM 15B NO 985 DONGFANG ROAD PU DONG NEW DISTRICT SHANGHAI P C:200120 EMAIL:SERVICE@AAA-LINE CN;SERVICE01@AAA-LINE CN TEL: 021-68782688 F,160,100.0,62.31884057971014,83.61688720856962,No
146.0,CN,AAA LINE INTERNATIONAL CHINA CORP,ROOM 15B NO 985 DONGFANG ROAD PUDONG NEW DISTRICT SHANGHAI ,160,100.0,62.31884057971014,83.61688720856962,No
,VN,AAA MERCHANDISE CORP,VIENERGY CO LTD O/B AAA MERCHANDISE CORP O/B DAH LIH PUH CO PHUC SON INDUSTRIAL PARK,-1,,,,
147.0,CN,AAA MOULD LIMITED, ROOM 906 BUIDING THREE LONGBANG KEJIE 2ND ROAD NO 375 MA TIAN STRE ,161,69.56521739130434,100.0,82.79773156899812,No
147.0,CN,AAA MOULD LTD,ROOM 906 BUIDING THREE LONGBANG KEJIE 2ND ROAD NO 375 MA TIAN STRE ,161,69.56521739130434,100.0,82.79773156899812,No
148.0,GU,AAA MOVING STORAGE INC,747 E SHIP CREEK AVE ANCHORAGE AK 996501 ,162,100.0,96.0,98.2608695652174,No
148.0,GU,AAA MOVING STORAGE INC,717 E SHIP CREEK AVE ANCHORAGE AK 99501 ,162,100.0,96.0,98.2608695652174,No
,VN,AAA SAIGON INTERNATIONAL TRADE SE,8282 LY CHINH THANG WARD 8 DIST 3 HCMC VIETNAM ,163,90.625,100.0,94.70108695652175,No
149.0,VN,AAA SAIGON INTERNATIONAL TRADE SERVICES CO LTD, 82 82 LY CHINH THANG WARD 8 DIST 3 HCMC VIETNAM ,163,90.625,100.0,94.70108695652175,No
149.0,RO,AAA SOCIETA AGRICOLA A RESPONSABIL,VIA DI FIORANELLO 32/34 ,-1,,,,
,PK,AAA SOLUTIONS,PLOT NO: PLOT 51 SECTOR 12/C NORTH KARACHI INDUSTRIAL AREA KARA PAKISTAN ,-1,,,,
150.0,TW,AAA WORLD WIDE ENTERPRISES LTD,5F -7 NO 183 SEC 4 ZHONGXIAO E RD DAAN DIST TAIPEI TAIWAN R O C ,135,100.0,61.9718309859155,83.46601347213719,No
150.0,TW,AAA WORLD WIDE ENTERPRISES LTD,5F NO 183 SECTION 4 CHUNG SHIAO EAST RD ,135,100.0,61.9718309859155,83.46601347213719,No
151.0,IN,AAACORP EXIM INDIA PRIVATE LIMITED, 2ND FLOOR C-206 GHATKOPAR INDUSTR ESTATE LBS MARG GHATKOPAR-W ,164,100.0,86.95652173913044,94.32892249527411,No
151.0,IN,AAACORP EXIM INDIA PRIVATE LIMITED, 2ND FLOOR C-206 GHATKOPAR INDUSTRIAL ESTATE LBS MARG ,164,100.0,86.95652173913044,94.32892249527411,No
152.0,VN,AACHEN OPTICAL FIBER CONEC TECHNOLO,WORKSHOP X2 X3 X5 IN HAI THANH WOR KSHOP AREA FORLEASE HAI THANH WAR D DUONG KINH DISTRICT HAIPHONG VN ,165,96.875,67.54966887417218,84.12485603224879,No
152.0,VN,AACHEN OPTICAL FIBER CONEC TECHNOLO,WORKSHOP X2 X3 X5 IN HAI THANH WORKAREA FOR LEASE HAI THANH WARD DUONGHAI PHONG VN ,165,96.875,66.17647058823529,83.52781329923275,No
152.0,VN,AACHEN OPTICAL FIBER CONEC TECHNOLO COMPANY, WORKSHOP X5 X3 IN HAI THANHWORKSHOP AREA FOR LEASE HAI THANH WARD DUO NG KINH DISTRIC ,165,87.32394366197182,70.50359712230217,80.01074951428937,No
152.0,VN,AACHEN OPTICAL FIBER CONEC TECHNOLOGY CO LTD, WORKSHOP X5 IN HAI THANH WORKSHOP A HAI THANH WARDDUONG KINH DISTRICT HAI PHONG CIVN ,165,87.32394366197182,70.50359712230217,80.01074951428937,No
,DE,AACHENER PRINTEN &,SCHOKOLADENFABRIK BORCHERSSTR 18 52072 AACHEN GERMANY ,166,62.5,70.27027027027026,65.87837837837837,No
153.0,DE,AACHENER PRINTEN & SCHOKOLADENFABRI HENRY LAMBERTZ GMBH CO,KG BORCHERSTRASSE 18 ,166,76.54320987654322,69.38775510204081,73.4321425832813,No
,BE,AACHENER PRINTEN UND SCH FABRIK,H LAMBERTZ GMBH BORCHERSSTR 18 ,166,75.0,100.0,85.86956521739131,No
153.0,BE,AACHENER PRINTEN UND SCHOKOLADE,BORCHERSSTR 18 AACHEN 52072 DE ,166,86.66666666666667,73.07692307692308,80.75808249721294,No
153.0,DE,AACHENER PRINTEN UND SCHOKOLADE,BORCHERSSTR 18 AACHEN 52072 DE ,166,86.66666666666667,73.07692307692308,80.75808249721294,No
153.0,BE,AACHENER PRINTEN UND SCHOKOLADEN,F H LAMBERTZ GMBH BORCHERSSTR 18 ,166,98.24561403508771,60.86956521739131,81.99515802739363,No
153.0,DE,AACHENER PRINTEN&SCHOKOLADENFABRI,BORCHERSTRASSE 18 AACHEN NW 52072 GERMANY ,166,86.66666666666667,73.07692307692308,80.75808249721294,No
,CN,AACURAPID HONG KONG LIMITED, ROOM 703B 7F PARK IN COMMERCIAL CENTRE NO 56 DUNDAS STREET MONG KOK KOWLOON HONG KONG 999077 ,-1,,,,
,IN,AADEV LIGHTING SOLUTIONS,A-002/018 SITE 5 KANSA IND AREA GAUTAM BUDHA NAGAR ,-1,,,,
,IN,AADHAR COMPANIES,DRTC HOUSE BEHIND OLYMPIC COMPLEX ,-1,,,,
,IN,AADHI EXPORT, NO 215/11 UP MAHARAJA TOWERS COTTON CITY ESTATE GN MILS ,-1,,,,
154.0,IN,AADHI GRANITES INDIA PRIVATE LIMITE, NO 26 KOTHUKARAR STREET AYEEPALA SIRUVALUR -638054 GOBICHETTYPALAYA ,167,100.0,98.98989898989899,99.56082564778218,No
154.0,IN,AADHI GRANITES INDIA PRIVATE LIMITE, NO 26 KOTHUKARAR STREET AYEEPALAY SIRUVALUR -638054 GOBICHETTYPALAYA ,167,100.0,98.98989898989899,99.56082564778218,No
,IN,AADI SHREE FASTENER INDUSTRIES VPO BHAGWANPURA SAHNEWAL DEHLON, ROAD LUDHIANA PUNJAB INDIA ,-1,,,,
,IN,AADI SHREE FASTENER INDUSTRIES VPO BHAGWANPURA SAHNEWAL DEHLON, ROAD ,-1,,,,
155.0,TW,AAEON TECHNOLOGY INC,5F NO 135 LANE 235 BAOQIAO RD XINDIAN DISTRICT NEW TAIPEI CITY 231 TAIWAN ,168,100.0,76.27118644067797,89.68312453942522,No
155.0,TW,AAEON TECHNOLOGY INC,5F NO 135 LANE 235 PAO-CHIAO ROAD HSIN- TIEN DIST NEW TAIPEI CITY 231 TAIWAN R O C ,168,100.0,76.27118644067797,89.68312453942522,No
,SA,AAF INTERNATIONAL AIR FILTRATION,SYSTEMS LLC P O BOX 28564 ,-1,,,,
,ES,AAF S A,URARTE 11 POL IND ALI GOBEO VITORIA-GASTEIZ PV 01010 SPAIN ,-1,,,,
,CN,AAF SUZHOU CO LTD, 116 CHANGYANG ST SIP USCI:91310115MA1K3JR070 ,-1,,,,
,CN,AAG HOLDINGS LIMITED, LEVEL 10 NO 241 KI LUNG ST SHAM SHUI PO HONG KONG 999077 CHINA ,-1,,,,
,DK,AAGE OSTERGAARD A/S,ISLANDSVEJ 25 ,-1,,,,
,IN,AAGHAZ BOOK CENTRE,2/60 HARIJAN BASTI EAST GOKUL PUR ,-1,,,,
,GB,AAI INTERNATIONAL LTD,OFFICE 4 GRAIGS BUSINESS CENTRE ,-1,,,,
,JP,AAI MOTORSPORTS CO LTD, RM 1702 SINO CENTRE 582-592 NATH AN RD MONGKOK KLN HONG KONG HO NG KONG ,-1,,,,
,IN,AAJ ENTERPRISES PRIVATE LIMITED, SY NO 6 HUSKUR ROAD MAKALLI VILLAGERURAL 131001 KARNATAKA INDIA KARNATAKA 131001 IN ,-1,,,,
156.0,JP,AAJ PLUS K K,2 26 6 MOTOKI ADACHI KU ,169,100.0,66.66666666666667,85.50724637681161,No
156.0,JP,AAJ PLUS K K,2-26-6 MOTOKI ADACHI-KU TOKYO 123-0853 JAPAN TEL: +81358455297 ,169,100.0,62.745098039215684,83.80221653878944,No
156.0,JP,AAJ PLUS K K,2 26 6 MOTOKI ,169,100.0,66.66666666666667,85.50724637681161,No
,DK,AAK DENMARK A/S,SLIPVEJ 4 ,-1,,,,
,GB,AAK INTERNATIONAL,KING GEORGE DOCK ,-1,,,,
157.0,MX,AAK MEXICO SA DE CV, AV HEROES DE NOCUPETARO 1022 COL INDUSTRIAL CP 58130 ,170,100.0,75.51020408163265,89.35226264418812,No
157.0,MX,AAK MEXICO SA DE CV, AV HEROES DE NOCUPETARO 1022 COL INDUSTRIAL C P 58130 MORELIA MICHOACAN MEXICO ,170,100.0,75.51020408163265,89.35226264418812,No
,SE,AAK SWEDEN AB,VASTRA KAJEN 9 ,-1,,,,
,IN,AAKAAR IRON CREATIONS PVT LTD, 812-E 12 B 812-G 25-26 SAMTEL ZONE RIICO IND ,-1,,,,
158.0,SG,AAKAR FOUNDRY PVT LTD, SURVEY NO 341/2 GANPATI MAL BEHIND NHEC SOMATANE PHATA TALEGAON-DABHADE TA L MAVAL ,171,100.0,63.793103448275865,84.25787106446778,No
158.0,IN,AAKAR FOUNDRY PVT LTD, SURVEY NO 341/2 NEAR TO NH4 SOMAT ANE PHATA TALEGAON DABHADE ,171,100.0,63.793103448275865,84.25787106446778,No
159.0,IN,AAKARSH EXPORT,F 21 OKHLA INDUSTRIAL AREA PHASE 1 ,172,100.0,93.87755102040816,97.33806566104704,No
159.0,IN,AAKARSH EXPORT,F-21 OKHLA INDUSTRIAL AREA PH- 1 ,172,100.0,93.87755102040816,97.33806566104704,No
,IN,AAKASH GLOBAL FOODS PRIVATE LIMITED, SURVEY NO 13/1/5 16/2 17/4 VILLA INDORE MP 453551 INDIA ,-1,,,,
,IN,AAKRITI MANUFACTURING PVT LTD, F-165 E P I P NEEMRANA DISTRICT ,-1,,,,
,IN,AAKRITI MANUFACTURING PVT LTD, IEC NO 0511056991 F-165 EPIP NH-8 NEEMRANA RAJASTHAN 301705 RJ IN ,-1,,,,
,IN,AAKSHITA INTERNATIONAL AHINSA BHAWAN SHANKAR, ROAD NEW RAJINDER NAGAR NEW DELHI 110060 US ,-1,,,,
160.0,CN,AAKT WORLDWIDE LIMITED, ROOM 1702 17/F KOWLOON HOUSE NO 555NATHAN ROAD MONG KOK KOWLOON HONG KONG 999077 CHINA ,173,100.0,80.55555555555556,91.54589371980677,No
160.0,CN,AAKT WORLDWIDE LIMITED, ROOM 1702 17 / F KOWLOON HOUSE NO 555 NATHAN ROAD MONG KOK HK ,173,100.0,80.55555555555556,91.54589371980677,No
,KP,AAL KOBE,C/O COLUMBIA SHIPMANAGEMENT LTD 21 SPYROU KYPRIANOU AVENUE YERMASOYIA 4042 LIMASSOL CYPRUS ,-1,,,,
,SA,AAL MIR PLASTICS IND LLC,INDUSTRIAL AREA 11 SHARJAH UNITED ARAB EMIRATES ,-1,,,,
,DE,AALBERTS INTEGRATED PIPING SYSTEMS,KFT MAGLODI UT 16D BUDAPEST 1106 HU ,-1,,,,
161.0,TW,AALBERTS INTEGRATED PIPING SYSTEMS,11F 2 NO 175 ZHONGZHENG 2ND ROAD L DISTRICT KAOHSIUNG TAIWAN 80274,174,93.93939393939394,69.33333333333334,83.24110671936761,No
161.0,TW,AALBERTS INTEGRATED PIPING SYSTEMS APAC INC,11F 2 NO 175 ZHONGZHENG 2ND RD LINGYA ,174,93.93939393939394,69.33333333333334,83.24110671936761,No
,FR,AALBERTS INTERGRATED PIPING SYSTEMS,46 RUE DE L INDUSTRIE 45550 SAINT DENIS DE L HOTEL FRANCE ,-1,,,,
,GB,AALCO METALS LTD,207 GREAT HOWARD STREET LIVERPOOL L5 9Z GB ,-1,,,,
,IS,AALESUND SEAFOOD AS MOLOVEIEN,3 B ALESUND 6004 NO,-1,,,,
,IN,AALISHAN EXPORT,26-A RAMAKRISHNA PURAM ,-1,,,,
,IN,AALIYA STONES,NEAR DULLA KUWA MASJID ,-1,,,,
,SG,AALST CHOCOLATE PTE LTD, 26 TUAS AVENUE 7 SINGAPORE 639273 SINGAPORE ,-1,,,,
,GB,AAM,131 PARKINSON LANE HALIFAX HX1 3RD GB ,-1,,,,
,IN,AAM AUTO COMPONENT INDIA PRIVATE,B 400 INDOSPACE INDUSTRIAL PARK BHAMBOLI CHAKAN ,-1,,,,
162.0,IN,AAM INDIA MANUFACTURING CORP, GAT NO 787 788 VILLAGE HUNGA TAL OPP SUPA M I D C DIST AHMEDNAGAR ,175,100.0,63.1578947368421,83.9816933638444,No
162.0,IN,AAM INDIA MANUFACTURING CORP, GAT NO 787&788 VILL HUNGA TALUKA PARNER OPP SUPA MIDC SUPA ,175,100.0,63.1578947368421,83.9816933638444,No
163.0,MX,AAM MAQUILADORA MEXICO,AVENIDA COMERCIANTES 1300 PARQUE INDUSTRIAL FIPASI ,176,86.95652173913044,83.9506172839506,85.64960675861748,No
163.0,MX,AAM MAQUILADORA MEXICO S DE RL DE C,AV LOS COMERCIANTES 1300 PARQUE IND FIPASI ,176,83.63636363636364,58.18181818181818,72.56916996047431,No
,LA,AAM MAQUILADORA MXICO S DE R L 1300 DE CV, AVE COMERCIANTES SILAO 36100 ,176,83.63636363636364,58.18181818181818,72.56916996047431,No
,DE,AAM POLAND SP ZO O,SZARYCH SZEREGOW 16-18 ,-1,,,,
,BE,AAMEC NV,EIKELAARSTRAAT 21 B-3600 GENK ,-1,,,,
,IN,AAMOR INOX LIMITED, A-30 SITE-IV UPSIDC INDL AREA SAHIBABAD UTTAR PRADESH ,-1,,,,
,BE,AAMS SALVARANI BVBA,SINT-BARBARASTRAAT 34 MALDEGEM BELGIUM ,-1,,,,
,GB,AAMY YBCA0081053,BRYCE RUTHERFORD ORIGIN 4 BROOKFIELDS CLOSE CAMBRIDGE CB8 7DY ,-1,,,,
,GB,AAMY YBCA0081241 MICHAEL MCFARLAND ORIGIN 17A EMMANUEL, RD CAMBRIDGE CB1 1JW ,-1,,,,
,GB,AAMY YBCA0081944,KEVIN RINEAR ORIGIN 3 CATHERINE HOUSE SAWSTON CB22 3XE ,-1,,,,
,GB,AAMY YBCA0082008 CHRISTINA ELDER ORIGIN,143 HILLS ROAD FLAT 64 CAMBRIDGE CB2 8RA,-1,,,,
,IN,AAN CLOTHINGS LLP,GURUGRAM PLOT NO-293 UDYOG VIHAR PH-VI GURGAON 122015 INDIA ,-1,,,,
,JP,AAN JAPAN CO LTD, 263-2 ROPPOUGAOKA YOTSUKAIDO-SHI 12 284-0008 JAPAN ,69,76.92307692307692,81.15942028985508,78.76496534341526,No
,IN,AANCH INVENTIONS,E 49/6 OKHLA INDUSTRIAL AREA PHASE II NEW DELHI DELHI 110020 DL IN ,-1,,,,
,IT,AANDG 23 SRL, VIA DORSALE MASSA AVENZA SNC ,-1,,,,
